 2014 0113 0445 15.0 L  55.970  22.680       GBF  2 0.0 1.8NGBF                1
                                                                               3
 STAT SP IPHASW D HRMM SECON CODA AMPLIT PERI AZIMU VELO SNR AR TRES W  DIS CAZ7
 HFS  SZ Pn    A  0446 48.6        510.9 1.02 133.5      4.4 06  0.0    704     
 HFS  SZ Sn    A  0447 57.2         50.2 0.27 121.8      3.6 05 -0.1    704     
 HFS  SZ  s    A  0448 06.3        202.2 0.46 115.9      4.6 11         704     
 ARC  SZ  s    A  0452 36.8         29.7 0.14 205.0      3.2 18        1519     

 2014 0113 0451 59.0 L  59.820  15.940       GBF  1 0.3 0.0NGBF                1
                                                                               3
 STAT SP IPHASW D HRMM SECON CODA AMPLIT PERI AZIMU VELO SNR AR TRES W  DIS CAZ7
 NRS  SZ Pn    A  0452 39.4         77.4 0.06 116.5      3.3 05  0.4    264     
 NRS  SZ Lg    A  0453 14.2        102.0 0.13  90.6      3.5 20 -0.3    264     

 2014 0113 0914 14.0 L  50.970  22.700       GBF  1 0.0 2.3NGBF                1
                                                                               3
 STAT SP IPHASW D HRMM SECON CODA AMPLIT PERI AZIMU VELO SNR AR TRES W  DIS CAZ7
 HFS  SZ Pn    A  0916 43.8         33.2 0.07 150.0      2.8 02  0.0   1166     
 HFS  SZ Sn    A  0918 33.7        379.7 0.10 123.7      4.6 23  0.1   1166     

 2014 0113 0919 21.0 L  59.400  14.690       GBF  1 0.6-0.3NGBF                1
                                                                               3
 STAT SP IPHASW D HRMM SECON CODA AMPLIT PERI AZIMU VELO SNR AR TRES W  DIS CAZ7
 HFS  SZ Pg    A  0919 37.5        613.8 0.08 136.9      7.9 08  0.4     99     
 HFS  SZ Lg    A  0919 48.5        269.5 0.10 152.3      4.2 06 -1.0     99     

 2014 0113 0944 27.0 L  59.340  27.270       GBF  1 0.3 0.9NGBF                1
                                                                               3
 STAT SP IPHASW D HRMM SECON CODA AMPLIT PERI AZIMU VELO SNR AR TRES W  DIS CAZ7
 FIN  SZ Pn    A  0945 04.9        646.5 0.10 162.5      8.3 01  0.5    243     
 FIN  SZ Lg    A  0945 36.8        453.1 0.21 167.2      3.7 03  0.2    243     

 2014 0113 1033 25.0 L  59.340  27.270       GBF  1 0.4 1.0NGBF                1
                                                                               3
 STAT SP IPHASW D HRMM SECON CODA AMPLIT PERI AZIMU VELO SNR AR TRES W  DIS CAZ7
 FIN  SZ Pn    A  1034 01.8        725.5 0.10 162.0     12.8 01 -0.7    243     
 FIN  SZ Lg    A  1034 34.5        518.3 0.22 164.9      5.6 01 -0.2    243     

 2014 0113 1325 14.0 L  58.810  16.380       GBF  2 0.2 1.2NGBF                1
                                                                               3
 STAT SP IPHASW D HRMM SECON CODA AMPLIT PERI AZIMU VELO SNR AR TRES W  DIS CAZ7
 HFS  SZ Pn    A  1325 47.1         55.1 0.08 137.3      2.5 04 -0.3    212     
 HFS  SZ Lg    A  1326 14.3        332.5 0.10 116.5      3.8 16 -0.3    212     
 ARC  SZ Sn    A  1329 55.7         50.0 0.25 225.6      4.5 21 -0.2   1273     

 2014 0113 1337 46.0 L  58.840  14.860       GBF  1 5.0 2.5NGBF                1
                                                                               3
 STAT SP IPHASW D HRMM SECON CODA AMPLIT PERI AZIMU VELO SNR AR TRES W  DIS CAZ7
 ARC  SZ Pn    A  1340 30.9         47.3 0.26 225.7     12.1 17 -0.7   1297     
 ARC  SZ  p    A  1340 34.4         28.3 0.24 225.1      4.9 16        1297     
 ARC  SZ Lg    A  1344 05.7         99.7 0.25 187.0      8.8 21  9.3   1297     

 2014 0113 1350 39.0 L  59.340  27.270       GBF  1 0.4 1.5NGBF                1
                                                                               3
 STAT SP IPHASW D HRMM SECON CODA AMPLIT PERI AZIMU VELO SNR AR TRES W  DIS CAZ7
 FIN  SZ Pn    A  1351 17.2       1004.6 0.10 163.8     20.0 00  0.7    243     
 FIN  SZ Lg    A  1351 48.4       2357.3 0.16 166.1     23.8 02 -0.2    243     

 2014 0113 1404 00.0 L  59.190  17.230       GBF  1 0.6 1.2NGBF                1
                                                                               3
 STAT SP IPHASW D HRMM SECON CODA AMPLIT PERI AZIMU VELO SNR AR TRES W  DIS CAZ7
 HFS  SZ Pn    A  1404 36.3        364.9 0.10 114.2      8.6 02  1.2    225     
 HFS  SZ  p    A  1404 42.2        168.3 0.10 105.2      4.5 11         225     
 HFS  SZ Lg    A  1405 04.3       1260.1 0.17 119.9      7.9 03  0.0    225     
 HFS  SZ  s    A  1405 07.0        838.4 0.23 101.9      6.1 14         225     

 2014 0113 1417 56.0 L  60.000  17.710       GBF  4 1.6 1.3NGBF                1
                                                                               3
 STAT SP IPHASW D HRMM SECON CODA AMPLIT PERI AZIMU VELO SNR AR TRES W  DIS CAZ7
 HFS  SZ Pn    A  1418 29.7       1007.7 0.13  91.8     37.4 00 -1.3    224     
 HFS  SZ  p    A  1418 35.3        247.8 0.57 112.0      4.0 19         224     
 HFS  SZ Lg    A  1418 58.4       2184.6 0.15  86.9      6.5 05 -1.5    224     
 NRS  SZ  p    A  1418 54.8        107.5 0.15  77.6      8.7 23         350     
 NRS  SZ Lg    A  1419 38.4        328.4 0.33 103.4     12.5 02  2.4    350     
 FIN  SZ Pn    A  1419 04.3        483.1 0.40 260.7      6.7 06  1.3    484     
 SPI  SZ  p    A  1422 30.4         50.1 0.24 177.5      4.3 00        2030     

 2014 0113 1636 37.0 L  58.990  17.420       GBF  1 0.7 0.8NGBF                1
                                                                               3
 STAT SP IPHASW D HRMM SECON CODA AMPLIT PERI AZIMU VELO SNR AR TRES W  DIS CAZ7
 HFS  SZ Pn    A  1637 14.4        300.9 0.10  95.7      4.5 24 -0.3    246     
 HFS  SZ Lg    A  1637 48.5        892.0 0.09 137.0      8.1 17  1.2    246     

 2014 0113 2329 59.0 L  58.990  15.050       GBF  2 0.3    NGBF                1
                                                                               3
 STAT SP IPHASW D HRMM SECON CODA AMPLIT PERI AZIMU VELO SNR AR TRES W  DIS CAZ7
 NRS  SZ Pn    A  2330 39.9         62.3 0.48 134.0      9.3 00 -0.6    276     
 SPI  SZ Pn    A  2334 24.8         54.3 0.10 165.4      5.4 16  0.0   2143     
 SPI  SZ  p    A  2334 27.4         36.2 0.11 159.6      4.4 22        2143     

 2014 0113 2359 10.0 L  52.190  21.630       GBF  1 0.0 1.7NGBF                1
                                                                               3
 STAT SP IPHASW D HRMM SECON CODA AMPLIT PERI AZIMU VELO SNR AR TRES W  DIS CAZ7
 HFS  SZ Pn    A  0001 21.0        151.1 0.12 165.7      4.4 18 -0.1   1012     
 HFS  SZ Lg    A  0003 59.0        192.3 0.10 132.1      4.0 15  0.0   1012     

 2014 0114 0040 59.0 L  50.440  16.350       GBF  5 0.8 2.6NGBF                1
                                                                               3
 STAT SP IPHASW D HRMM SECON CODA AMPLIT PERI AZIMU VELO SNR AR TRES W  DIS CAZ7
 HFS  SZ Pn    A  0043 19.8        221.2 0.18 173.7      8.1 03 -0.1   1093     
 HFS  SZ  p    A  0043 23.2        186.8 0.20 165.6      5.7 04        1093     
 HFS  SZ  p    A  0043 29.4        174.6 0.18 174.6      4.1 04        1093     
 HFS  SZ Sn    A  0045 02.0        178.0 0.28 163.0      2.7 07 -1.1   1093     
 NRS  SZ Pn    A  0043 30.7        288.6 0.20 141.6     21.2 21 -0.5   1185     
 NOA  SZ Pn    A  0043 36.1         67.1 0.19 163.7      5.2 01  0.4   1223     
 FIN  SZ Pn    A  0043 54.2        175.6 0.25 203.5     11.4 07  1.2   1365     
 FIN  SZ Sn    A  0045 59.0        287.5 0.33 201.2      6.5 09 -1.4   1365     
 ARC  SZ Pn    A  0045 27.6         34.0 0.27 189.8      8.0 07 -1.3   2183     

 2014 0114 0935 29.0 L  59.340  27.670       GBF  1 0.2 1.0NGBF                1
                                                                               3
 STAT SP IPHASW D HRMM SECON CODA AMPLIT PERI AZIMU VELO SNR AR TRES W  DIS CAZ7
 FIN  SZ Pn    A  0936 07.6        268.0 0.15 158.8      8.8 00  0.3    250     
 FIN  SZ Lg    A  0936 40.8        755.1 0.14 163.5      2.9 04  0.2    250     

 2014 0114 1102 30.0 L  58.890  18.160       GBF  2 0.4 1.2NGBF                1
                                                                               3
 STAT SP IPHASW D HRMM SECON CODA AMPLIT PERI AZIMU VELO SNR AR TRES W  DIS CAZ7
 HFS  SZ Pn    A  1103 12.8         33.3 0.08 117.6      3.2 00 -0.1    288     
 HFS  SZ Sn    A  1103 43.3        279.4 0.07 115.6      5.1 01 -0.9    288     
 HFS  SZ Lg    A  1103 51.8        381.7 0.08 104.7      4.4 12 -0.5    288     
 ARC  SZ  s    A  1108 37.5         55.7 0.10 186.1      4.3 14        1238     

 2014 0114 1102 21.0 L  58.770  14.330       GBF  1 0.2-0.2NGBF                1
                                                                               3
 STAT SP IPHASW D HRMM SECON CODA AMPLIT PERI AZIMU VELO SNR AR TRES W  DIS CAZ7
 HFS  SZ Pg    A  1102 45.8         32.0 0.08 154.8      3.7 11 -0.5    156     
 HFS  SZ Lg    A  1103 05.8        197.7 0.07 180.5     12.7 14  0.0    156     

 2014 0114 1128 46.0 L  59.400  16.680       GBF  1 0.2-0.0NGBF                1
                                                                               3
 STAT SP IPHASW D HRMM SECON CODA AMPLIT PERI AZIMU VELO SNR AR TRES W  DIS CAZ7
 HFS  SZ Pn    A  1129 16.3        239.1 0.08  99.8      4.2 15  0.5    186     
 HFS  SZ Lg    A  1129 39.3        169.3 0.08 128.6      3.4 13  0.1    186     

 2014 0114 1145 45.0 L  59.790  15.130       GBF  2 0.8 0.7NGBF                1
                                                                               3
 STAT SP IPHASW D HRMM SECON CODA AMPLIT PERI AZIMU VELO SNR AR TRES W  DIS CAZ7
 HFS  SZ Pg    A  1146 00.8        206.5 0.08  97.2      2.7 18  1.5     89     
 HFS  SZ Lg    A  1146 10.8        460.2 0.07 130.5      2.6 15  0.4     89     
 ARC  SZ Sn    A  1150 09.1         37.6 0.12 208.6      3.2 00 -0.8   1192     

 2014 0114 1142 36.0 L  54.540  28.400       GBF  1 0.1 2.2NGBF                1
                                                                               3
 STAT SP IPHASW D HRMM SECON CODA AMPLIT PERI AZIMU VELO SNR AR TRES W  DIS CAZ7
 HFS  SZ Pn    A  1144 55.5        175.0 0.09 122.7      2.6 03  0.1   1080     
 HFS  SZ Sn    A  1146 37.3        505.4 0.08 104.6      7.7 14 -0.1   1080     

 2014 0114 1242 01.0 L  56.230  23.820       GBF  3 0.8 0.4NGBF                1
                                                                               3
 STAT SP IPHASW D HRMM SECON CODA AMPLIT PERI AZIMU VELO SNR AR TRES W  DIS CAZ7
 FIN  SZ Pn    A  1243 23.0        306.5 0.05 188.2      7.9 05  1.4    596     
 FIN  SZ  p    A  1243 27.0        246.4 0.10 182.6      6.1 11         596     
 HFS  SZ Sn    A  1244 49.8         31.1 0.08 107.3      4.5 14 -0.4    737     
 SPI  SZ Pn    A  1246 57.8         42.6 0.15 157.1      4.9 11 -0.6   2467     

 2014 0114 1334 35.0 L  59.300  27.450       GBF  2 1.0 1.3NGBF                1
                                                                               3
 STAT SP IPHASW D HRMM SECON CODA AMPLIT PERI AZIMU VELO SNR AR TRES W  DIS CAZ7
 FIN  SZ Pn    A  1335 14.8        330.8 0.10 161.1      8.3 00  1.5    251     
 FIN  SZ Lg    A  1335 47.1        308.2 0.22 161.5      5.1 00  0.4    251     
 HFS  SZ Lg    A  1338 16.0        155.0 0.25 109.9      2.7 19 -1.3    778     

 2014 0114 1336 03.0 L  58.890  22.230       GBF  1 1.9 1.8NGBF                1
                                                                               3
 STAT SP IPHASW D HRMM SECON CODA AMPLIT PERI AZIMU VELO SNR AR TRES W  DIS CAZ7
 HFS  SZ Pn    A  1337 12.1        127.0 0.10  78.1      3.7 24 -0.1    502     
 HFS  SZ Lg    A  1338 30.2        678.6 0.40 127.2      6.5 24  3.8    502     

 2014 0114 1410 44.0 L  58.620  15.450       GBF  1 0.2 0.1NGBF                1
                                                                               3
 STAT SP IPHASW D HRMM SECON CODA AMPLIT PERI AZIMU VELO SNR AR TRES W  DIS CAZ7
 HFS  SZ Pn    A  1411 15.3        185.2 0.15 152.0      4.1 03  0.0    196     
 HFS  SZ Lg    A  1411 39.7        245.7 0.09 132.4      2.6 16 -0.4    196     

 2014 0115 0749 24.0 L  59.600  17.660       GBF  1 0.6 1.1NGBF                1
                                                                               3
 STAT SP IPHASW D HRMM SECON CODA AMPLIT PERI AZIMU VELO SNR AR TRES W  DIS CAZ7
 HFS  SZ Pn    A  0750 00.9        507.8 0.10 103.1     10.9 00  1.2    230     
 HFS  SZ  p    A  0750 03.8        324.2 0.10  96.1      5.7 07         230     
 HFS  SZ Lg    A  0750 29.7       1529.1 0.10 103.6      6.9 00 -0.1    230     
 HFS  SZ  s    A  0750 32.5       1327.7 0.09 113.5      6.2 10         230     

 2014 0115 0825 51.0 L  58.990  18.200       GBF  2 2.0 1.2NGBF                1
                                                                               3
 STAT SP IPHASW D HRMM SECON CODA AMPLIT PERI AZIMU VELO SNR AR TRES W  DIS CAZ7
 HFS  SZ Pn    A  0826 33.6         92.6 0.08 113.7      2.7 01  0.1    284     
 HFS  SZ Lg    A  0827 14.2         43.6 0.27 120.9      2.7 06  1.9    284     
 ARC  SZ Lg    A  0831 37.1         41.6 0.32 225.0      3.8 24 -4.3   1227     

 2014 0115 1121 21.0 L  58.220  15.050       GBF  2 0.8 0.9NGBF                1
                                                                               3
 STAT SP IPHASW D HRMM SECON CODA AMPLIT PERI AZIMU VELO SNR AR TRES W  DIS CAZ7
 HFS  SZ Pn    A  1121 55.2        128.5 0.25 145.9      3.8 13 -1.1    227     
 HFS  SZ Lg    A  1122 27.0        733.8 0.15 160.2      4.3 00  1.2    227     
 SPI  SZ Pn    A  1125 55.6         64.8 0.29 200.4     14.0 18  0.4   2228     

 2014 0115 1406 48.0 L  59.600  17.660       GBF  1 0.3 1.1NGBF                1
                                                                               3
 STAT SP IPHASW D HRMM SECON CODA AMPLIT PERI AZIMU VELO SNR AR TRES W  DIS CAZ7
 HFS  SZ Pn    A  1407 23.8        217.5 0.08 102.6      5.9 00  0.1    230     
 HFS  SZ Lg    A  1407 53.1        595.5 0.30  98.1     12.7 05 -0.6    230     
 HFS  SZ  s    A  1407 55.9        703.1 0.15 121.8      5.7 18         230     

 2014 0115 1418 04.0 L  59.290  20.670       GBF  1 1.9 0.9NGBF                1
                                                                               3
 STAT SP IPHASW D HRMM SECON CODA AMPLIT PERI AZIMU VELO SNR AR TRES W  DIS CAZ7
 HFS  SZ Pn    A  1419 01.5        203.7 0.10 119.4      3.9 18  0.4    403     
 HFS  SZ Sn    A  1419 47.0        154.8 0.10  90.4      4.1 10  4.1    403     
 HFS  SZ Lg    A  1419 58.0        419.4 0.10 100.2      4.8 00 -1.2    403     

 2014 0115 1805 05.0 L  58.630  15.040       GBF  1 0.4-0.4NGBF                1
                                                                               3
 STAT SP IPHASW D HRMM SECON CODA AMPLIT PERI AZIMU VELO SNR AR TRES W  DIS CAZ7
 HFS  SZ Pn    A  1805 34.8         28.3 0.08 166.8      3.0 11  0.4    184     
 HFS  SZ Lg    A  1805 58.2         77.2 0.08 154.0      2.7 01  0.5    184     

 2014 0116 0301 59.0 L  55.290  18.400       GBF  3 0.2    NGBF                1
                                                                               3
 STAT SP IPHASW D HRMM SECON CODA AMPLIT PERI AZIMU VELO SNR AR TRES W  DIS CAZ7
 NRS  SZ Pn    A  0303 35.7         52.3 0.21 134.8      9.1 08 -0.1    729     
 FIN  SZ Pn    A  0303 46.7        187.7 0.25 202.3     12.3 14  0.1    818     
 ARC  SZ Pn    A  0305 25.4         12.6 0.23 191.8      6.8 04  0.6   1628     

 2014 0116 0452 48.0 L  59.400  15.910       GBF  1 3.5-0.3NGBF                1
                                                                               3
 STAT SP IPHASW D HRMM SECON CODA AMPLIT PERI AZIMU VELO SNR AR TRES W  DIS CAZ7
 HFS  SZ Pg    A  0453 11.1        102.1 0.08 101.6      2.7 21 -0.9    149     
 HFS  SZ Lg    A  0453 36.8         81.4 0.15 144.9      2.5 22  6.2    149     

 2014 0116 0500 03.0 L  57.000  14.850       GBF  3 0.6 2.5NGBF                1
                                                                               3
 STAT SP IPHASW D HRMM SECON CODA AMPLIT PERI AZIMU VELO SNR AR TRES W  DIS CAZ7
 FIN  SZ Lg    A  0503 54.2        327.5 0.31 252.8      5.8 15  0.2    808     
 ARC  SZ Lg    A  0507 08.1        110.1 0.40 196.7      9.5 09 -1.0   1492     
 SPI  SZ Pn    A  0504 51.2         65.1 0.31 177.8      6.1 04  0.7   2364     

 2014 0116 0615 54.0 L  58.830  15.640       GBF  3 0.4 2.1NGBF                1
                                                                               3
 STAT SP IPHASW D HRMM SECON CODA AMPLIT PERI AZIMU VELO SNR AR TRES W  DIS CAZ7
 FIN  SZ Sn    A  0618 24.9        307.6 0.26 261.1      3.4 13  0.3    648     
 ARC  SZ Lg    A  0622 01.4        100.1 0.31 202.7      5.9 03  0.8   1283     
 SPI  SZ Pn    A  0620 21.2         65.9 0.15 173.2      8.3 07 -0.4   2160     

 2014 0116 1000 11.0 L  59.210  16.440       GBF  1 0.5 0.5NGBF                1
                                                                               3
 STAT SP IPHASW D HRMM SECON CODA AMPLIT PERI AZIMU VELO SNR AR TRES W  DIS CAZ7
 HFS  SZ Pn    A  1000 40.3        301.8 0.10 118.6      3.8 04 -0.4    186     
 HFS  SZ Lg    A  1001 04.8        181.0 0.25 122.1      6.3 00  0.6    186     
 HFS  SZ  s    A  1001 07.7        479.3 0.11 132.4      3.2 09         186     

 2014 0116 1027 46.0 L  59.300  27.060       GBF  1 0.3 1.1NGBF                1
                                                                               3
 STAT SP IPHASW D HRMM SECON CODA AMPLIT PERI AZIMU VELO SNR AR TRES W  DIS CAZ7
 FIN  SZ Pn    A  1028 24.2       1021.6 0.10 167.3     15.5 00  0.6    245     
 FIN  SZ Lg    A  1028 56.0        609.4 0.21 170.4      6.7 03 -0.1    245     

 2014 0116 1158 39.0 L  59.920  29.120       GBF  2 3.6 1.7NGBF                1
                                                                               3
 STAT SP IPHASW D HRMM SECON CODA AMPLIT PERI AZIMU VELO SNR AR TRES W  DIS CAZ7
 FIN  SZ Pn    A  1159 15.2       3360.4 0.05 113.8     36.8 20 -0.4    237     
 FIN  SZ Lg    A  1159 44.5       1843.1 1.09 120.4      4.1 13 -2.3    237     
 ARC  SZ Lg    A  1203 57.4         32.3 0.21 187.4      3.6 18  8.4   1085     

 2014 0116 1312 34.0 L  58.610  15.810       GBF  4 1.5 1.6NGBF                1
                                                                               3
 STAT SP IPHASW D HRMM SECON CODA AMPLIT PERI AZIMU VELO SNR AR TRES W  DIS CAZ7
 HFS  SZ Pn    A  1313 06.5       1346.2 0.78 148.1     15.6 04 -0.4    208     
 HFS  SZ  p    A  1313 32.2       2549.2 0.63 148.8     13.0 04         208     
 HFS  SZ Lg    A  1313 34.5       2732.9 0.63 148.0     10.9 04  1.0    208     
 HFS  SZ Rg    A  1313 43.9       1838.7 0.93 142.0      3.9 02 -0.8    208     
 NRS  SZ Sn    A  1314 03.5        177.7 0.20 118.8      6.7 13  4.7    337     
 NRS  SZ  s    A  1314 08.0        258.9 0.37 132.4      9.0 00         337     
 NRS  SZ Lg    A  1314 12.6        247.5 0.43 130.5     12.0 02  2.2    337     
 NOA  SZ Lg    A  1314 20.3        230.9 0.24 129.6      2.8 04 -0.5    373     
 ARC  SZ  s    A  1317 45.1        118.9 0.46 183.3      4.7 22        1304     

 2014 0116 1337 42.0 L  59.300  27.450       GBF  1 0.2 1.2NGBF                1
                                                                               3
 STAT SP IPHASW D HRMM SECON CODA AMPLIT PERI AZIMU VELO SNR AR TRES W  DIS CAZ7
 FIN  SZ Pn    A  1338 20.8        755.8 0.10 163.6     15.4 01  0.5    251     
 FIN  SZ Lg    A  1338 53.7        702.9 0.24 165.5     15.7 03  0.0    251     

