 2014 0107 1100 13.0 L  58.390  16.770       GBF  2 2.8 0.8NGBF                1
                                                                               3
 STAT SP IPHASW D HRMM SECON CODA AMPLIT PERI AZIMU VELO SNR AR TRES W  DIS CAZ7
 HFS  SZ  s    A  1101 09.6        590.2 0.10 120.2      4.1 16         261     
 HFS  SZ Sn    A  1101 14.2        752.0 0.10 115.3      6.5 21 -7.4    261     
 HFS  SZ Lg    A  1101 28.7        424.8 0.10 116.7      2.6 20  1.0    261     
 SPI  SZ Pn    A  1104 45.4         94.1 0.10 201.0      5.3 21  0.0   2209     

 2014 0107 1105 03.0 L  56.740  25.740       GBF  1 0.1 2.0NGBF                1
                                                                               3
 STAT SP IPHASW D HRMM SECON CODA AMPLIT PERI AZIMU VELO SNR AR TRES W  DIS CAZ7
 HFS  SZ Pn    A  1106 48.2        438.9 0.08  89.9      9.7 23  0.2    797     
 HFS  SZ Sn    A  1108 04.8        372.5 0.10 119.3      6.2 06  0.0    797     
 HFS  SZ  s    A  1108 14.9        712.9 0.11 114.5      4.3 01         797     

 2014 0107 1124 41.0 L  53.610  29.200       GBF  1 0.1 2.1NGBF                1
                                                                               3
 STAT SP IPHASW D HRMM SECON CODA AMPLIT PERI AZIMU VELO SNR AR TRES W  DIS CAZ7
 HFS  SZ Pn    A  1127 13.3        230.7 0.10 118.3      4.0 02 -0.1   1187     
 HFS  SZ Lg    A  1130 20.4        269.0 0.08 135.6      4.0 14  0.2   1187     

 2014 0107 1142 06.0 L  59.330  28.050       GBF  4 0.5 1.7NGBF                1
                                                                               3
 STAT SP IPHASW D HRMM SECON CODA AMPLIT PERI AZIMU VELO SNR AR TRES W  DIS CAZ7
 FIN  SZ Pn    A  1142 45.8        893.7 0.05 155.7     24.2 01  0.5    259     
 FIN  SZ Lg    A  1143 19.7       1936.7 0.29 162.0     29.9 07 -0.3    259     
 HFS  SZ Pn    A  1143 52.5        260.7 0.13 101.3      5.1 11 -0.2    810     
 NRS  SZ Pn    A  1144 08.7        211.0 0.15  81.8     10.5 10  1.5    931     
 NOA  SZ Pn    A  1144 09.3        122.8 0.10  91.9      3.9 02 -0.3    951     

 2014 0107 1232 02.0 L  59.340  27.270       GBF  1 0.4 1.2NGBF                1
                                                                               3
 STAT SP IPHASW D HRMM SECON CODA AMPLIT PERI AZIMU VELO SNR AR TRES W  DIS CAZ7
 FIN  SZ Pn    A  1232 40.1        391.7 0.10 161.6      8.8 02  0.7    243     
 FIN  SZ Lg    A  1233 11.3       1208.6 0.15 163.8      6.9 00 -0.3    243     

 2014 0107 1243 45.0 L  59.300  27.450       GBF  1 0.3 1.3NGBF                1
                                                                               3
 STAT SP IPHASW D HRMM SECON CODA AMPLIT PERI AZIMU VELO SNR AR TRES W  DIS CAZ7
 FIN  SZ Pn    A  1244 22.7       1278.4 0.10 162.4     20.1 00 -0.7    251     
 FIN  SZ Lg    A  1244 56.7        907.0 0.23 166.5      9.0 04  0.0    251     

 2014 0107 1248 47.0 L  57.170  22.240       GBF  2 1.4 1.7NGBF                1
                                                                               3
 STAT SP IPHASW D HRMM SECON CODA AMPLIT PERI AZIMU VELO SNR AR TRES W  DIS CAZ7
 HFS  SZ Pn    A  1250 07.7        119.1 0.08 126.6      4.6 06  0.2    595     
 HFS  SZ Lg    A  1251 38.2        229.6 0.30 116.9      3.8 03  1.1    595     
 NRS  SZ Lg    A  1252 13.0        182.6 0.42 118.8     11.3 00 -3.0    732     

 2014 0107 1307 23.0 L  60.000  14.930       GBF  1 0.7-0.6NGBF                1
                                                                               3
 STAT SP IPHASW D HRMM SECON CODA AMPLIT PERI AZIMU VELO SNR AR TRES W  DIS CAZ7
 HFS  SZ Pg    A  1307 33.5         73.5 0.08 103.3      6.0 01 -0.8     70     
 HFS  SZ Lg    A  1307 43.7        142.8 0.15 105.1      2.7 03  0.6     70     

 2014 0107 1336 42.0 L  59.020  15.830       GBF  1 0.2 2.1NGBF                1
                                                                               3
 STAT SP IPHASW D HRMM SECON CODA AMPLIT PERI AZIMU VELO SNR AR TRES W  DIS CAZ7
 ARC  SZ Pn    A  1339 22.8         52.2 0.17 210.0     10.5 03 -0.4   1260     
 ARC  SZ  p    A  1339 30.5         20.5 0.28 216.2      4.1 10        1260     
 ARC  SZ Lg    A  1342 41.8         40.4 0.30 181.3      4.3 24  0.0   1260     

 2014 0107 1352 30.0 L  59.390  17.030       GBF  2 0.3    NGBF                1
                                                                               3
 STAT SP IPHASW D HRMM SECON CODA AMPLIT PERI AZIMU VELO SNR AR TRES W  DIS CAZ7
 NRS  SZ Pn    A  1353 19.2        118.4 0.06 115.1      3.7 01 -0.2    340     
 SPI  SZ Pn    A  1356 51.9         32.5 0.17 187.6      5.1 08  0.5   2098     

 2014 0107 1425 20.0 L  58.440  14.080       GBF  2 1.4 1.4NGBF                1
                                                                               3
 STAT SP IPHASW D HRMM SECON CODA AMPLIT PERI AZIMU VELO SNR AR TRES W  DIS CAZ7
 HFS  SZ Pn    A  1425 50.6        340.2 0.20 183.4      5.3 10  0.2    190     
 HFS  SZ  p    A  1425 54.7        208.8 0.35 174.4      5.0 01         190     
 HFS  SZ Lg    A  1426 14.4       1795.6 0.33 175.6     22.7 02 -0.1    190     
 HFS  SZ  s    A  1426 18.2       1404.5 0.32 188.6      6.1 15         190     
 NRS  SZ Pn    A  1426 02.3        144.4 0.16 140.9      7.5 08 -1.3    293     
 NRS  SZ  p    A  1426 06.3         66.6 0.17 134.6     12.8 15         293     
 NRS  SZ Sn    A  1426 36.0        335.2 0.24 148.5      5.3 01  0.6    293     
 NRS  SZ Lg    A  1426 49.1        413.8 0.44 154.6     12.6 05  5.2    293     

 2014 0107 1514 45.0 L  54.680  15.540       GBF  1 0.0 1.7NGBF                1
                                                                               3
 STAT SP IPHASW D HRMM SECON CODA AMPLIT PERI AZIMU VELO SNR AR TRES W  DIS CAZ7
 HFS  SZ Pn    A  1516 08.3        307.4 0.08 172.6      3.5 03  0.1    617     
 HFS  SZ Sn    A  1517 09.1        556.2 0.21 150.5      5.5 18 -0.1    617     

 2014 0107 1526 48.0 L  51.160  14.300       GBF  1 0.2 2.0NGBF                1
                                                                               3
 STAT SP IPHASW D HRMM SECON CODA AMPLIT PERI AZIMU VELO SNR AR TRES W  DIS CAZ7
 HFS  SZ Pn    A  1528 57.3        647.6 0.08 177.2      5.3 00 -0.5   1000     
 HFS  SZ Sn    A  1530 32.8        486.9 0.07 178.7      2.6 01  0.1   1000     

 2014 0107 1603 18.0 L  55.630  23.840       GBF  2 0.7 2.1NGBF                1
                                                                               3
 STAT SP IPHASW D HRMM SECON CODA AMPLIT PERI AZIMU VELO SNR AR TRES W  DIS CAZ7
 HFS  SZ Sn    A  1606 16.9        612.8 0.10 124.8     10.2 00  0.2    782     
 HFS  SZ  s    A  1606 39.7        832.0 0.10 125.2      4.4 00         782     
 HFS  SZ Lg    A  1607 02.9        911.4 0.10 125.7      3.9 00  1.4    782     
 SPI  SZ Pn    A  1608 22.5        155.4 0.20 159.5      9.6 09  0.8   2533     
 SPI  SZ  p    A  1608 24.9        118.9 0.30 160.7      7.5 08        2533     

 2014 0107 1613 08.0 L  56.360  17.930       GBF  1 0.1 1.1NGBF                1
                                                                               3
 STAT SP IPHASW D HRMM SECON CODA AMPLIT PERI AZIMU VELO SNR AR TRES W  DIS CAZ7
 HFS  SZ Pn    A  1614 15.4        487.8 0.08 171.9      4.5 24 -0.2    488     
 HFS  SZ Sn    A  1615 04.8        533.5 0.08 125.5      4.9 22 -0.1    488     

 2014 0107 1631 11.0 L  55.830  24.020       GBF  1 0.0 1.5NGBF                1
                                                                               3
 STAT SP IPHASW D HRMM SECON CODA AMPLIT PERI AZIMU VELO SNR AR TRES W  DIS CAZ7
 HFS  SZ Pn    A  1632 53.4        202.1 0.07 144.8      2.8 21  0.0    775     
 HFS  SZ  s    A  1634 40.3         27.3 0.08  98.8      3.6 24         775     
 HFS  SZ Lg    A  1634 52.6        250.3 0.08 114.3      4.4 09  0.1    775     

 2014 0107 1651 03.0 L  52.720  14.120       GBF  2 6.0 2.0NGBF                1
                                                                               3
 STAT SP IPHASW D HRMM SECON CODA AMPLIT PERI AZIMU VELO SNR AR TRES W  DIS CAZ7
 HFS  SZ Pn    A  1652 51.6        173.9 0.08 187.3      2.5 09  0.0    826     
 HFS  SZ Lg    A  1654 49.8        379.9 0.68 182.6      3.9 04 -9.3    826     
 NRS  SZ Sn    A  1654 36.8        761.0 0.07 179.0     19.3 10  9.0    906     

 2014 0107 1924 52.0 L  56.190  20.320       GBF  1 0.0 1.8NGBF                1
                                                                               3
 STAT SP IPHASW D HRMM SECON CODA AMPLIT PERI AZIMU VELO SNR AR TRES W  DIS CAZ7
 NRS  SZ Pn    A  1926 27.6        582.9 0.07 119.0     11.0 11  0.0    719     
 NRS  SZ Lg    A  1928 17.4        820.1 0.07 143.7     12.3 12 -0.1    719     

 2014 0107 1933 52.0 L  50.960  24.060       GBF  1 0.3 2.8NGBF                1
                                                                               3
 STAT SP IPHASW D HRMM SECON CODA AMPLIT PERI AZIMU VELO SNR AR TRES W  DIS CAZ7
 NRS  SZ Pn    A  1936 42.0        672.8 0.07 138.9     16.3 00 -0.6   1337     
 NRS  SZ Sn    A  1938 47.6        731.4 0.06 146.5      8.2 07  0.0   1337     
 NRS  SZ  s    A  1939 25.0        615.6 0.06 153.9     16.2 15        1337     
 NRS  SZ  s    A  1940 00.2        892.2 0.11 162.4     26.6 23        1337     

 2014 0107 1937 59.0 L  53.290  19.420       GBF  2 4.5 2.0NGBF                1
                                                                               3
 STAT SP IPHASW D HRMM SECON CODA AMPLIT PERI AZIMU VELO SNR AR TRES W  DIS CAZ7
 HFS  SZ Sn    A  1941 00.6        153.7 0.10 161.9      5.0 09 -9.0    838     
 NRS  SZ Pn    A  1940 05.0        447.1 0.06 171.5     16.9 24  1.7    956     
 NRS  SZ Sn    A  1941 37.1       1645.1 0.06 147.7     20.8 01  2.7    956     
 NRS  SZ Lg    A  1942 36.9       1135.8 0.07 137.1     23.8 09  4.7    956     
 NRS  SZ  s    A  1942 42.5       1950.4 0.05 149.2     12.3 02         956     

 2014 0107 1939 44.0 L  51.150  15.520       GBF  1 0.0 2.3NGBF                1
                                                                               3
 STAT SP IPHASW D HRMM SECON CODA AMPLIT PERI AZIMU VELO SNR AR TRES W  DIS CAZ7
 NRS  SZ Pn    A  1942 05.3        693.6 0.08 170.2     15.8 05  0.0   1095     
 NRS  SZ Lg    A  1944 56.9        570.8 0.09 157.8     13.2 07  0.0   1095     

 2014 0108 0335 12.0 L  57.130  25.900       GBF  2 1.7 2.5NGBF                1
                                                                               3
 STAT SP IPHASW D HRMM SECON CODA AMPLIT PERI AZIMU VELO SNR AR TRES W  DIS CAZ7
 HFS  SZ Sn    A  0338 15.7       1815.9 0.10 113.7      6.2 03  4.9    782     
 HFS  SZ Lg    A  0338 55.6        751.5 0.10 115.0      5.4 05  0.0    782     
 SPI  SZ Pn    A  0340 00.4         22.0 0.22 164.9      4.6 00 -0.3   2377     

 2014 0108 0347 19.0 L  51.880  16.650       GBF  1 2.2 2.5NGBF                1
                                                                               3
 STAT SP IPHASW D HRMM SECON CODA AMPLIT PERI AZIMU VELO SNR AR TRES W  DIS CAZ7
 HFS  SZ Pn    A  0349 20.9        392.3 0.11 177.9     11.4 10 -0.2    937     
 HFS  SZ Sn    A  0350 56.5        927.8 0.10 168.5      8.5 01  6.1    937     
 HFS  SZ Lg    A  0351 46.3        805.8 0.08 158.1      2.6 09 -0.5    937     

 2014 0108 0409 32.0 L  56.960  19.900       GBF  1 0.1 1.1NGBF                1
                                                                               3
 STAT SP IPHASW D HRMM SECON CODA AMPLIT PERI AZIMU VELO SNR AR TRES W  DIS CAZ7
 HFS  SZ Pn    A  0410 41.7        569.1 0.10 152.5      5.4 20  0.1    505     
 HFS  SZ Lg    A  0411 56.4        390.8 0.10 107.4      6.9 24  0.1    505     

 2014 0108 0421 27.0 L  55.480  16.890       GBF  1 0.1 1.4NGBF                1
                                                                               3
 STAT SP IPHASW D HRMM SECON CODA AMPLIT PERI AZIMU VELO SNR AR TRES W  DIS CAZ7
 HFS  SZ Pn    A  0422 42.4        593.4 0.10 160.3     25.0 01  0.1    552     
 HFS  SZ Lg    A  0424 04.5        969.8 0.08 159.0     15.3 00 -0.3    552     

 2014 0108 0432 17.0 L  58.890  18.540       GBF  2 2.4 1.4NGBF                1
                                                                               3
 STAT SP IPHASW D HRMM SECON CODA AMPLIT PERI AZIMU VELO SNR AR TRES W  DIS CAZ7
 HFS  SZ Sn    A  0433 35.3       2183.1 0.10  97.7     14.2 17 -0.1    307     
 HFS  SZ  s    A  0433 37.9       1204.0 0.11 109.4      5.5 05         307     
 HFS  SZ Lg    A  0433 51.6       1271.5 0.10 114.5      2.8 00  6.8    307     
 SPI  SZ Pn    A  0436 43.6         34.3 0.22 172.7      5.9 03 -0.4   2155     
 SPI  SZ  p    A  0437 01.1         55.9 0.33 164.8      3.2 11        2155     

 2014 0108 0435 56.0 L  57.550  19.260       GBF  1 2.8 1.1NGBF                1
                                                                               3
 STAT SP IPHASW D HRMM SECON CODA AMPLIT PERI AZIMU VELO SNR AR TRES W  DIS CAZ7
 HFS  SZ Pn    A  0436 57.9        494.8 0.08 154.4     10.0 24  1.3    431     
 HFS  SZ Sn    A  0437 34.1        485.9 0.11 106.3      3.7 23 -6.7    431     
 HFS  SZ Lg    A  0437 58.6        434.8 0.08 153.8      4.4 24 -0.6    431     

 2014 0108 0447 23.0 L  59.940  24.680       GBF  4 4.6 1.8NGBF                1
                                                                               3
 STAT SP IPHASW D HRMM SECON CODA AMPLIT PERI AZIMU VELO SNR AR TRES W  DIS CAZ7
 HFS  SZ Sn    A  0449 54.5       1004.6 0.10 111.3      9.0 24  8.6    612     
 NRS  SZ Sn    A  0450 03.3        135.3 0.37  66.5     11.7 24 -7.6    730     
 ARC  SZ Lg    A  0452 27.0         49.6 0.21 177.7      4.1 04 -2.0   1071     
 SPI  SZ Pn    A  0451 40.8         10.6 0.17 166.3      6.5 00  0.4   2058     

 2014 0108 0444 30.0 L  57.750  18.000       GBF  3 1.5 1.4NGBF                1
                                                                               3
 STAT SP IPHASW D HRMM SECON CODA AMPLIT PERI AZIMU VELO SNR AR TRES W  DIS CAZ7
 HFS  SZ Sn    A  0445 56.0        534.2 0.10 113.1      4.2 22 -4.3    363     
 HFS  SZ Lg    A  0446 13.7        357.0 0.10 157.6      7.3 22 -0.1    363     
 ARC  SZ  s    A  0450 29.3         30.2 0.15 174.7      2.4 24        1364     
 SPI  SZ Pn    A  0449 09.5         17.7 0.14 189.7      4.6 12  0.1   2281     

 2014 0108 0452 46.0 L  57.770  22.790       GBF  1 4.4 1.5NGBF                1
                                                                               3
 STAT SP IPHASW D HRMM SECON CODA AMPLIT PERI AZIMU VELO SNR AR TRES W  DIS CAZ7
 HFS  SZ Pn    A  0454 05.8       1141.9 0.10 136.2     18.9 23  0.5    585     
 HFS  SZ Sn    A  0455 01.4        624.7 0.10 111.6      4.8 01 -2.0    585     
 HFS  SZ Lg    A  0455 44.1        271.1 0.10 108.6      3.2 04 10.9    585     

 2014 0108 0504 40.0 L  55.230  24.190       GBF  3 2.5 2.0NGBF                1
                                                                               3
 STAT SP IPHASW D HRMM SECON CODA AMPLIT PERI AZIMU VELO SNR AR TRES W  DIS CAZ7
 HFS  SZ Lg    A  0508 42.0         95.7 0.26 138.1      2.7 11  5.1    829     
 ARC  SZ Lg    A  0512 13.6         46.4 0.28 207.9      3.8 24 -2.4   1596     
 SPI  SZ Pn    A  0509 47.8         34.0 0.18 166.8      4.3 01 -0.3   2579     

 2014 0108 0633 25.0 L  54.010  26.120       GBF  1 0.2 2.6NGBF                1
                                                                               3
 STAT SP IPHASW D HRMM SECON CODA AMPLIT PERI AZIMU VELO SNR AR TRES W  DIS CAZ7
 HFS  SZ Pn    A  0635 36.0        468.6 0.10 124.8      5.7 02 -0.3   1013     
 HFS  SZ Lg    A  0638 14.6       1747.9 0.08 138.0      4.3 11  0.1   1013     

 2014 0108 0759 36.0 L  58.730  31.410       GBF  1 0.1 2.3NGBF                1
                                                                               3
 STAT SP IPHASW D HRMM SECON CODA AMPLIT PERI AZIMU VELO SNR AR TRES W  DIS CAZ7
 HFS  SZ Pn    A  0801 47.5        332.6 0.09  90.2      4.8 01  0.1   1014     
 HFS  SZ Sn    A  0803 23.8        523.0 0.12  99.1      2.7 07  0.2   1014     

 2014 0108 0814 39.0 L  51.380  20.350       GBF  3 1.6 2.7NGBF                1
                                                                               3
 STAT SP IPHASW D HRMM SECON CODA AMPLIT PERI AZIMU VELO SNR AR TRES W  DIS CAZ7
 HFS  SZ Lg    A  0819 46.5       1293.7 0.10 152.2     13.0 01  4.8   1059     
 NRS  SZ Sn    A  0819 00.4        209.9 0.18 170.1      9.9 21 -0.1   1175     
 NRS  SZ Lg    A  0820 13.6        880.5 0.08 124.2     18.3 24 -1.1   1175     
 SPI  SZ Pn    A  0820 21.1         71.2 0.34 173.0      4.1 01 -0.5   2994     

 2014 0108 0827 28.0 L  52.470  26.960       GBF  2 9.4 2.8NGBF                1
                                                                               3
 STAT SP IPHASW D HRMM SECON CODA AMPLIT PERI AZIMU VELO SNR AR TRES W  DIS CAZ7
 HFS  SZ Sn    A  0831 56.2        581.7 0.11 112.4      5.1 18  5.6   1181     
 HFS  SZ Lg    A  0832 53.6        591.5 0.08 149.4      4.1 18-11.7   1181     
 NRS  SZ Sn    A  0832 10.5       1543.8 0.06 141.3     18.8 13 -8.3   1315     
 NRS  SZ  s    A  0832 51.4       2079.0 0.06 138.2     43.3 10        1315     
 NRS  SZ Lg    A  0833 55.6       1063.2 0.07 141.4     17.9 13 11.9   1315     

 2014 0108 0824 00.0 L  55.370  16.890       GBF  2 4.4 1.6NGBF                1
                                                                               3
 STAT SP IPHASW D HRMM SECON CODA AMPLIT PERI AZIMU VELO SNR AR TRES W  DIS CAZ7
 HFS  SZ  s    A  0826 06.6        307.0 0.08 154.4      3.7 04         564     
 HFS  SZ Sn    A  0826 12.1        231.5 0.10 155.9      2.5 03 -0.7    564     
 HFS  SZ Lg    A  0826 51.8        764.5 0.09 136.1      8.8 22 10.7    564     
 NRS  SZ Pn    A  0825 32.2       1114.2 0.07 152.5     18.0 02  1.9    675     
 NRS  SZ Sn    A  0826 31.7        367.9 0.15 167.6      6.8 17 -4.6    675     

 2014 0108 0915 11.0 L  52.670  18.530       GBF  1 0.0 2.7NGBF                1
                                                                               3
 STAT SP IPHASW D HRMM SECON CODA AMPLIT PERI AZIMU VELO SNR AR TRES W  DIS CAZ7
 NRS  SZ Pn    A  0917 19.9        128.7 0.08 152.0      8.6 00 -0.1    994     
 NRS  SZ Sn    A  0918 54.5       1674.0 0.08 145.3     25.8 06  0.0    994     

 2014 0108 0925 27.0 L  53.240  24.070       GBF  1 0.0 2.8NGBF                1
                                                                               3
 STAT SP IPHASW D HRMM SECON CODA AMPLIT PERI AZIMU VELO SNR AR TRES W  DIS CAZ7
 NRS  SZ Pn    A  0927 52.2        348.8 0.06 120.9      8.7 11  0.1   1127     
 NRS  SZ Sn    A  0929 38.3       1521.6 0.06 139.7     22.4 07  0.0   1127     

 2014 0108 0929 58.0 L  57.770  17.210       GBF  1 1.5 1.2NGBF                1
                                                                               3
 STAT SP IPHASW D HRMM SECON CODA AMPLIT PERI AZIMU VELO SNR AR TRES W  DIS CAZ7
 NRS  SZ Pn    A  0931 02.1        476.4 0.07 135.1     16.4 01 -0.3    462     
 NRS  SZ Sn    A  0931 45.9        176.3 0.17 132.5      9.4 00 -3.5    462     
 NRS  SZ Lg    A  0932 11.0        985.2 0.06 131.6     20.7 01  1.0    462     

 2014 0108 0927 33.0 L  51.540  26.590       GBF  1 0.2 2.8NGBF                1
                                                                               3
 STAT SP IPHASW D HRMM SECON CODA AMPLIT PERI AZIMU VELO SNR AR TRES W  DIS CAZ7
 NRS  SZ Pn    A  0930 28.6        583.2 0.08 134.1     13.0 03 -0.3   1381     
 NRS  SZ Lg    A  0934 07.7       1202.7 0.07 128.7     22.0 02  0.2   1381     

