 2014 0121 1151 18.0 L  56.010  15.680       GBF  1 2.1 1.1NGBF                1
                                                                               3
 STAT SP IPHASW D HRMM SECON CODA AMPLIT PERI AZIMU VELO SNR AR TRES W  DIS CAZ7
 HFS  SZ Pn    A  1152 25.1        115.1 0.08 183.0      3.3 18  1.2    475     
 HFS  SZ  p    A  1152 48.3        197.6 0.05 181.8      3.5 16         475     
 HFS  SZ Sn    A  1153 11.1        107.2 0.08 182.7      3.6 17 -0.9    475     
 HFS  SZ  s    A  1153 13.1        314.8 0.13 181.7      4.1 16         475     
 HFS  SZ  s    A  1153 35.1        107.7 0.08 182.7      4.0 17         475     
 HFS  SZ Lg    A  1153 37.9        308.3 0.15 177.2      3.9 12  4.2    475     

 2014 0121 1230 34.0 L  58.700  27.640       GBF  1 2.5 1.4NGBF                1
                                                                               3
 STAT SP IPHASW D HRMM SECON CODA AMPLIT PERI AZIMU VELO SNR AR TRES W  DIS CAZ7
 FIN  SZ Pn    A  1231 20.9        599.2 0.10 162.0      7.6 01  0.3    318     
 FIN  SZ Sn    A  1231 52.6        813.5 0.25 162.2     18.4 01 -2.1    318     
 FIN  SZ Rg    A  1232 16.8        695.5 0.77 154.8      3.0 08 -5.2    318     

 2014 0121 1239 30.0 L  59.340  27.670       GBF  1 0.2 1.4NGBF                1
                                                                               3
 STAT SP IPHASW D HRMM SECON CODA AMPLIT PERI AZIMU VELO SNR AR TRES W  DIS CAZ7
 FIN  SZ Pn    A  1240 08.8        671.5 0.10 160.6     17.7 01  0.6    250     
 FIN  SZ Lg    A  1240 41.6       1914.9 0.16 161.1      8.5 02  0.0    250     

 2014 0121 1301 24.0 L  59.380  15.770       GBF  2 1.7 0.9NGBF                1
                                                                               3
 STAT SP IPHASW D HRMM SECON CODA AMPLIT PERI AZIMU VELO SNR AR TRES W  DIS CAZ7
 HFS  SZ Pg    A  1301 46.8        547.0 0.15 122.8     17.0 02 -0.4    143     
 HFS  SZ  p    A  1301 49.2        388.7 0.15 133.9      7.9 09         143     
 HFS  SZ  p    A  1301 52.3        274.6 0.10 122.2      6.9 02         143     
 HFS  SZ  p    A  1301 54.7        262.4 0.13 133.5      4.9 08         143     
 HFS  SZ  p    A  1301 57.3        226.5 0.13 108.8      2.6 16         143     
 HFS  SZ Lg    A  1302 09.1       1330.9 0.14 124.5      7.6 00  4.1    143     
 NRS  SZ Lg    A  1302 43.2        279.0 0.24 113.0      9.9 07 -0.7    279     

 2014 0121 1320 18.0 L  59.340  27.270       GBF  1 0.4 1.0NGBF                1
                                                                               3
 STAT SP IPHASW D HRMM SECON CODA AMPLIT PERI AZIMU VELO SNR AR TRES W  DIS CAZ7
 FIN  SZ Pn    A  1320 55.1        293.6 0.05 159.8      8.4 04 -0.4    243     
 FIN  SZ Lg    A  1321 27.1        944.4 0.13 166.7      4.5 02 -0.6    243     

 2014 0121 1333 57.0 L  59.430  15.070       GBF  3 1.3 0.5NGBF                1
                                                                               3
 STAT SP IPHASW D HRMM SECON CODA AMPLIT PERI AZIMU VELO SNR AR TRES W  DIS CAZ7
 HFS  SZ Pg    A  1334 14.3        471.5 0.08 137.1     33.7 02 -0.4    110     
 HFS  SZ  p    A  1334 15.9        841.7 0.08 155.8      4.5 20         110     
 HFS  SZ Lg    A  1334 30.3        599.4 0.21 141.7      5.0 06  1.9    110     
 NRS  SZ Lg    A  1335 09.2        435.9 0.17 113.6      8.6 11  2.4    244     
 NOA  SZ Pn    A  1334 39.6         90.5 0.07 140.8      5.7 12  0.8    279     

 2014 0121 1333 56.0 L  58.830  14.860       GBF  1 0.1 0.7NGBF                1
                                                                               3
 STAT SP IPHASW D HRMM SECON CODA AMPLIT PERI AZIMU VELO SNR AR TRES W  DIS CAZ7
 HFS  SZ Pn    A  1334 22.2        349.4 0.08 139.4      4.2 15  0.3    160     
 HFS  SZ  s    A  1334 37.6        263.4 0.20 164.7      5.5 09         160     
 HFS  SZ  s    A  1334 39.4        758.4 0.18 166.1      4.1 10         160     
 HFS  SZ Lg    A  1334 41.7        378.6 0.22 160.5      3.1 05  0.0    160     

 2014 0121 1357 54.0 L  59.220  15.270       GBF  2 0.7 1.2NGBF                1
                                                                               3
 STAT SP IPHASW D HRMM SECON CODA AMPLIT PERI AZIMU VELO SNR AR TRES W  DIS CAZ7
 HFS  SZ  p    A  1358 11.9        532.1 0.27 122.7     12.1 15         135     
 HFS  SZ Pg    A  1358 14.7        467.8 0.25 143.8      8.0 05 -1.1    135     
 HFS  SZ Lg    A  1358 33.9       1312.6 0.20 128.0      8.5 10  1.3    135     
 HFS  SZ  s    A  1358 37.2        382.6 0.18 119.0      6.5 19         135     
 HFS  SZ  s    A  1358 39.5       1529.3 0.95 125.4      6.5 13         135     
 NRS  SZ Pn    A  1358 34.1        104.2 0.26 137.3      9.8 09 -0.3    268     
 NRS  SZ  s    A  1359 06.1        361.8 0.29 110.1      7.4 17         268     
 NRS  SZ  s    A  1359 08.0        324.6 0.27 106.1     11.9 21         268     
 NRS  SZ Lg    A  1359 10.7        365.1 0.38 114.7     12.5 12  0.2    268     

 2014 0121 1356 30.0 L  59.890  18.340       GBF  1 1.9 0.2NGBF                1
                                                                               3
 STAT SP IPHASW D HRMM SECON CODA AMPLIT PERI AZIMU VELO SNR AR TRES W  DIS CAZ7
 HFS  SZ Pn    A  1357 10.5         44.0 0.08 105.6      2.5 11  1.0    260     
 HFS  SZ Sn    A  1357 35.5        192.9 0.10  91.5      4.6 02 -2.8    260     

 2014 0121 1411 27.0 L  59.210  14.460       GBF  2 2.8 0.1NGBF                1
                                                                               3
 STAT SP IPHASW D HRMM SECON CODA AMPLIT PERI AZIMU VELO SNR AR TRES W  DIS CAZ7
 HFS  SZ Pg    A  1411 41.5        452.3 0.20 157.6     14.8 00 -3.7    112     
 HFS  SZ Lg    A  1412 02.3        628.4 0.09 139.8      4.5 17  3.2    112     
 ARC  SZ Pn    A  1414 10.6         26.5 0.34 190.6      6.1 19  1.8   1265     

 2014 0121 1718 59.0 L  56.650  16.800       GBF  2 1.4 2.6NGBF                1
                                                                               3
 STAT SP IPHASW D HRMM SECON CODA AMPLIT PERI AZIMU VELO SNR AR TRES W  DIS CAZ7
 NRS  SZ Pn    A  1720 13.1         92.1 0.45 119.5      9.4 24 -0.6    547     
 ARC  SZ Sn    A  1724 25.3         58.9 0.34 223.5      4.4 22 -3.2   1499     
 ARC  SZ  s    A  1726 06.4         76.3 0.25 224.0     12.0 23        1499     
 ARC  SZ Lg    A  1726 07.6         92.3 0.35 218.4      6.7 17  0.4   1499     

 2014 0121 2346 29.0 L  53.120  26.210       GBF  3 0.3 2.9NGBF                1
                                                                               3
 STAT SP IPHASW D HRMM SECON CODA AMPLIT PERI AZIMU VELO SNR AR TRES W  DIS CAZ7
 FIN  SZ Lg    A  2350 53.3        226.5 0.50 196.7      3.3 17 -0.4    927     
 APA  SZ Lg    A  2354 21.6       6056.3 0.24 181.5      9.1 14  0.0   1655     
 SPI  SZ Pn    A  2351 58.2         66.3 0.14 185.4      5.9 19  0.5   2823     

 2014 0122 0231 41.0 L  58.490  18.930       GBF  2 0.3    NGBF                1
                                                                               3
 STAT SP IPHASW D HRMM SECON CODA AMPLIT PERI AZIMU VELO SNR AR TRES W  DIS CAZ7
 NRS  SZ Pn    A  0232 48.7         65.5 0.46 123.4     13.1 05  0.5    486     
 SPI  SZ Pn    A  0236 12.6         18.0 0.21 155.8      4.4 20  0.2   2200     

 2014 0122 0433 37.0 L  55.430  16.330       GBF  3 0.0    NGBF                1
                                                                               3
 STAT SP IPHASW D HRMM SECON CODA AMPLIT PERI AZIMU VELO SNR AR TRES W  DIS CAZ7
 HFS  SZ Pn    A  0434 51.5         98.8 0.32 163.7      5.5 01 -0.1    547     
 HFS  SZ  p    A  0434 54.0         78.1 0.23 163.1      3.9 00         547     
 HFS  SZ  p    A  0434 58.4        116.3 0.24 163.7      4.2 01         547     
 HFS  SZ  p    A  0435 01.4        118.8 0.23 172.9      3.9 10         547     
 NRS  SZ Pn    A  0435 04.6         74.2 0.16 139.4      9.3 13 -0.1    654     
 ARC  SZ Pn    A  0437 04.1         13.0 0.37 188.6      4.1 12  0.0   1638     

 2014 0122 0837 14.0 L  59.920  24.260       GBF  2 0.0    NGBF                1
                                                                               3
 STAT SP IPHASW D HRMM SECON CODA AMPLIT PERI AZIMU VELO SNR AR TRES W  DIS CAZ7
 HFS  SZ Pn    A  0838 33.8        202.9 0.08  86.1      2.7 01  0.1    589     
 SPI  SZ Pn    A  0841 31.5         77.2 0.14 168.6      6.9 01  0.1   2058     

 2014 0122 0834 01.0 L  56.130  25.630       GBF  1 0.0 2.0NGBF                1
                                                                               3
 STAT SP IPHASW D HRMM SECON CODA AMPLIT PERI AZIMU VELO SNR AR TRES W  DIS CAZ7
 HFS  SZ Pn    A  0835 50.1        276.6 0.10 134.3      6.9 17  0.0    831     
 HFS  SZ  p    A  0835 54.7        228.6 0.09 123.7      4.0 06         831     
 HFS  SZ Sn    A  0837 10.0        494.1 0.10 112.1      4.2 05  0.0    831     

 2014 0122 0846 24.0 L  58.840  14.480       GBF  1 6.2 0.4NGBF                1
                                                                               3
 STAT SP IPHASW D HRMM SECON CODA AMPLIT PERI AZIMU VELO SNR AR TRES W  DIS CAZ7
 HFS  SZ Pg    A  0846 47.8        199.9 0.08 183.0      3.0 20 -0.6    151     
 HFS  SZ Lg    A  0847 19.2        238.3 0.45 171.2     11.1 08 11.9    151     

 2014 0122 0903 58.0 L  59.830  14.280       GBF  4 0.2 1.1NGBF                1
                                                                               3
 STAT SP IPHASW D HRMM SECON CODA AMPLIT PERI AZIMU VELO SNR AR TRES W  DIS CAZ7
 HFS  SZ  p    A  0904 04.8       4570.6 0.13 150.0     43.4 13          47     
 HFS  SZ  p    A  0904 09.9        879.9 0.13 148.1     32.1 11          47     
 HFS  SZ Lg    A  0904 12.1       5470.9 0.16 144.2     63.0 07  0.6     47     
 NRS  SZ Pn    A  0904 27.1       1042.8 0.13 123.0     41.1 00  0.0    182     
 NRS  SZ  p    A  0904 29.6        529.0 0.16 106.4     83.2 16         182     
 NRS  SZ Lg    A  0904 49.9        829.0 0.41 128.9     41.8 06 -0.1    182     
 NRS  SZ  s    A  0904 54.1        314.2 0.27 113.0     41.8 09         182     
 NOA  SZ Pn    A  0904 32.0        262.7 0.14 138.7     11.5 11  0.0    216     
 NOA  SZ Lg    A  0904 59.5        391.0 0.23 133.2      4.4 06 -0.2    216     
 ARC  SZ  s    A  0908 15.9         24.5 0.29 215.2      4.2 03        1204     

 2014 0122 0904 16.0 L  59.340  26.880       GBF  1 0.3 1.0NGBF                1
                                                                               3
 STAT SP IPHASW D HRMM SECON CODA AMPLIT PERI AZIMU VELO SNR AR TRES W  DIS CAZ7
 FIN  SZ Pn    A  0904 53.1        759.2 0.10 161.0     13.8 08  0.3    239     
 FIN  SZ Lg    A  0905 23.8        580.2 0.19 169.4      5.3 00 -0.4    239     

 2014 0122 0939 05.0 L  54.830  15.110       GBF  1 4.0 1.4NGBF                1
                                                                               3
 STAT SP IPHASW D HRMM SECON CODA AMPLIT PERI AZIMU VELO SNR AR TRES W  DIS CAZ7
 HFS  SZ Pn    A  0940 24.8        344.3 0.08 164.8      3.3 06 -1.0    597     
 HFS  SZ Lg    A  0942 02.7        444.0 0.08 172.1      2.9 00  7.1    597     
 HFS  SZ  s    A  0942 11.2        608.1 0.09 191.8      4.7 20         597     

 2014 0122 1004 08.0 L  59.340  27.670       GBF  2 0.9 1.2NGBF                1
                                                                               3
 STAT SP IPHASW D HRMM SECON CODA AMPLIT PERI AZIMU VELO SNR AR TRES W  DIS CAZ7
 FIN  SZ Pn    A  1004 45.5       1404.4 0.10 162.7     33.2 03 -0.8    250     
 FIN  SZ Lg    A  1005 18.8        702.5 0.28 162.6     15.5 03 -0.7    250     
 NRS  SZ Pn    A  1006 08.0        149.3 0.15  95.4      7.7 02  1.2    910     

 2014 0122 1115 12.0 L  59.420  15.460       GBF  1 0.3 0.0NGBF                1
                                                                               3
 STAT SP IPHASW D HRMM SECON CODA AMPLIT PERI AZIMU VELO SNR AR TRES W  DIS CAZ7
 HFS  SZ Pg    A  1115 32.8        171.5 0.08 134.3      4.4 06  0.3    127     
 HFS  SZ Lg    A  1115 48.7        465.6 0.08 117.6      3.8 10  0.4    127     

 2014 0122 1143 54.0 L  55.690  31.230       GBF  1 1.3 2.0NGBF                1
                                                                               3
 STAT SP IPHASW D HRMM SECON CODA AMPLIT PERI AZIMU VELO SNR AR TRES W  DIS CAZ7
 FIN  SZ Pn    A  1145 26.5        330.9 0.15 152.6     15.0 00 -1.6    707     
 FIN  SZ Sn    A  1146 39.1        290.7 0.33 152.2      2.6 00  2.2    707     
 FIN  SZ Lg    A  1147 16.2        290.4 0.52 157.8      3.1 05  0.2    707     

 2014 0122 1147 08.0 L  59.940  24.690       GBF  1 0.2 1.4NGBF                1
                                                                               3
 STAT SP IPHASW D HRMM SECON CODA AMPLIT PERI AZIMU VELO SNR AR TRES W  DIS CAZ7
 FIN  SZ Pn    A  1147 38.0        652.9 0.10 198.4     15.3 06  0.5    184     
 FIN  SZ Lg    A  1148 00.7       3242.5 0.13 212.7      8.7 07  0.0    184     

 2014 0122 1156 46.0 L  56.030  16.520       GBF  2 2.9 1.1NGBF                1
                                                                               3
 STAT SP IPHASW D HRMM SECON CODA AMPLIT PERI AZIMU VELO SNR AR TRES W  DIS CAZ7
 HFS  SZ Sn    A  1158 45.9        281.1 0.14 179.5      4.4 20  3.3    486     
 HFS  SZ Lg    A  1159 08.8        271.1 0.14 181.6      3.9 22  3.7    486     
 FIN  SZ Pn    A  1158 31.5        347.3 0.15 217.6      9.0 09 -2.0    817     

 2014 0122 1201 21.0 L  59.590  17.230       GBF  1 0.5 0.9NGBF                1
                                                                               3
 STAT SP IPHASW D HRMM SECON CODA AMPLIT PERI AZIMU VELO SNR AR TRES W  DIS CAZ7
 HFS  SZ Pn    A  1201 52.9        456.2 0.10 110.6     12.6 05 -0.8    206     
 HFS  SZ  p    A  1201 56.1        505.2 0.08  97.7      4.4 07         206     
 HFS  SZ Lg    A  1202 20.3        984.8 0.14 102.9     10.5 02  0.2    206     

 2014 0122 1221 10.0 L  57.710  14.060       GBF  1 0.2 0.3NGBF                1
                                                                               3
 STAT SP IPHASW D HRMM SECON CODA AMPLIT PERI AZIMU VELO SNR AR TRES W  DIS CAZ7
 HFS  SZ Pn    A  1221 50.6        143.6 0.08 184.4      3.0 09 -0.2    271     
 HFS  SZ Lg    A  1222 27.8        193.7 0.14 174.9      4.1 00  0.3    271     

 2014 0122 1240 41.0 L  59.390  14.650       GBF  2 2.5 0.0NGBF                1
                                                                               3
 STAT SP IPHASW D HRMM SECON CODA AMPLIT PERI AZIMU VELO SNR AR TRES W  DIS CAZ7
 HFS  SZ Pg    A  1240 54.8        653.4 0.08 145.2     25.3 01 -2.2     99     
 HFS  SZ Lg    A  1241 11.3        562.2 0.11 147.0      9.3 00  1.9     99     
 HFS  SZ Rg    A  1241 20.9       1115.8 0.74 157.9      4.7 10  6.2     99     
 NRS  SZ Pn    A  1241 16.6        155.2 0.16 127.2     15.6 02 -0.1    229     

 2014 0122 1249 39.0 L  57.790  21.500       GBF  2 1.6 0.9NGBF                1
                                                                               3
 STAT SP IPHASW D HRMM SECON CODA AMPLIT PERI AZIMU VELO SNR AR TRES W  DIS CAZ7
 HFS  SZ Pn    A  1250 50.3         45.1 0.08 137.6      2.8 20  0.1    519     
 HFS  SZ Lg    A  1252 07.3         69.4 0.08 113.3      2.8 03  0.0    519     
 NRS  SZ Sn    A  1252 15.7        184.6 0.43  99.2     10.2 16  4.7    655     

 2014 0122 1328 51.0 L  59.390  17.420       GBF  5 1.6 1.8NGBF                1
                                                                               3
 STAT SP IPHASW D HRMM SECON CODA AMPLIT PERI AZIMU VELO SNR AR TRES W  DIS CAZ7
 HFS  SZ  p    A  1329 19.9       1665.7 0.27 124.8     41.3 14         225     
 HFS  SZ  s    A  1329 48.9       5575.7 0.41 127.0     30.7 16         225     
 HFS  SZ Lg    A  1329 52.5       2630.9 0.34 131.5      9.5 21 -2.9    225     
 NRS  SZ Pn    A  1329 43.0        904.7 0.30 122.0     10.2 10  0.2    360     
 NRS  SZ Sn    A  1330 18.8        171.5 0.30 103.1      6.9 08 -1.8    360     
 NRS  SZ  s    A  1330 27.8        643.1 0.45 120.3      5.2 08         360     
 NRS  SZ  s    A  1330 30.9        455.1 0.43 127.2     10.4 15         360     
 NRS  SZ Lg    A  1330 33.3        310.8 0.24 116.7     11.0 04 -0.6    360     
 NOA  SZ Pn    A  1329 48.2        200.9 0.24 127.3      5.2 11  1.7    390     
 NOA  SZ Lg    A  1330 36.9        374.3 0.32 120.5      3.7 05 -5.5    390     
 FIN  SZ Pn    A  1330 04.2        130.6 0.30 245.5      5.4 02  0.8    528     
 FIN  SZ Lg    A  1331 22.1        684.4 0.43 253.7      4.7 05  0.1    528     
 ARC  SZ Pn    A  1331 23.2         27.5 0.34 192.8      5.4 09 -1.1   1194     

 2014 0122 1329 31.0 L  59.340  27.670       GBF  1 0.2 1.4NGBF                1
                                                                               3
 STAT SP IPHASW D HRMM SECON CODA AMPLIT PERI AZIMU VELO SNR AR TRES W  DIS CAZ7
 FIN  SZ Pn    A  1330 09.1        906.7 0.10 159.3     21.2 00 -0.2    250     
 FIN  SZ Lg    A  1330 42.3       1428.0 0.22 165.0     11.7 06 -0.3    250     

 2014 0122 1414 50.0 L  58.830  14.850       GBF  1 0.0 0.5NGBF                1
                                                                               3
 STAT SP IPHASW D HRMM SECON CODA AMPLIT PERI AZIMU VELO SNR AR TRES W  DIS CAZ7
 HFS  SZ  p    A  1415 13.8        186.2 0.08 153.3      7.1 02         159     
 HFS  SZ Pg    A  1415 15.9        160.6 0.08 155.5      5.8 00  0.2    159     
 HFS  SZ  p    A  1415 19.8        103.4 0.08 176.5      2.7 21         159     
 HFS  SZ Lg    A  1415 35.5        552.6 0.17 156.8      5.6 01  0.0    159     

 2014 0122 1715 32.0 L  56.670  26.120       GBF  1 0.2 1.4NGBF                1
                                                                               3
 STAT SP IPHASW D HRMM SECON CODA AMPLIT PERI AZIMU VELO SNR AR TRES W  DIS CAZ7
 HFS  SZ Pn    A  1717 20.3        318.1 0.10 116.2      4.4 03  0.4    820     
 HFS  SZ Sn    A  1718 38.8        208.4 0.08 112.7      3.0 00  0.0    820     

 2014 0122 1921 15.0 L  52.560  24.060       GBF  2 0.2 2.7NGBF                1
                                                                               3
 STAT SP IPHASW D HRMM SECON CODA AMPLIT PERI AZIMU VELO SNR AR TRES W  DIS CAZ7
 HFS  SZ  p    A  1923 52.5        149.1 0.08 119.5      4.5 18        1057     
 HFS  SZ Sn    A  1925 11.9        759.4 0.08 138.4      5.7 00  0.3   1057     
 HFS  SZ  s    A  1926 01.6        468.3 0.08 153.5      3.2 15        1057     
 HFS  SZ Lg    A  1926 17.2       1504.8 0.08 143.1      4.6 04  0.2   1057     
 HFS  SZ  s    A  1926 34.2        363.3 0.08 116.9      2.7 21        1057     
 SPI  SZ Pn    A  1926 48.1         11.4 0.27 192.7      4.2 23  0.2   2875     

 2014 0122 1923 33.0 L  59.090  20.870       GBF  1 0.4 0.9NGBF                1
                                                                               3
 STAT SP IPHASW D HRMM SECON CODA AMPLIT PERI AZIMU VELO SNR AR TRES W  DIS CAZ7
 HFS  SZ Pn    A  1924 32.8        115.1 0.08 101.7      2.9 01  0.5    421     
 HFS  SZ Sn    A  1925 15.3        358.7 0.11 104.5      6.8 01 -0.4    421     

 2014 0122 1923 54.0 L  59.830  14.690       GBF  1 0.2 0.1NGBF                1
                                                                               3
 STAT SP IPHASW D HRMM SECON CODA AMPLIT PERI AZIMU VELO SNR AR TRES W  DIS CAZ7
 HFS  SZ Pg    A  1924 04.2        292.1 0.10 115.7      5.8 05 -0.3     65     
 HFS  SZ Lg    A  1924 12.8       1437.7 0.08 120.6      7.7 01  0.2     65     

