 2014 0108 0932 48.0 L  59.990  17.310       GBF  1 0.5 0.7NGBF                1
                                                                               3
 STAT SP IPHASW D HRMM SECON CODA AMPLIT PERI AZIMU VELO SNR AR TRES W  DIS CAZ7
 HFS  SZ Pn    A  0933 20.0        213.6 0.10  94.0      5.8 00 -0.1    202     
 HFS  SZ Lg    A  0933 46.6        579.9 0.13  90.5      8.5 02  1.0    202     

 2014 0108 0947 13.0 L  59.190  17.620       GBF  2 1.0 1.1NGBF                1
                                                                               3
 STAT SP IPHASW D HRMM SECON CODA AMPLIT PERI AZIMU VELO SNR AR TRES W  DIS CAZ7
 HFS  SZ Pn    A  0947 50.7        390.5 0.27  96.2      7.2 17  0.1    244     
 HFS  SZ  p    A  0947 55.3        111.5 0.08 114.3      2.5 00         244     
 HFS  SZ  s    A  0948 17.8        805.6 0.11  92.7      5.6 21         244     
 HFS  SZ Lg    A  0948 20.5        757.2 0.10  96.8      5.3 17 -2.4    244     
 NRS  SZ  p    A  0947 53.9        981.1 0.07 137.3     29.2 23         380     
 NRS  SZ Lg    A  0949 01.3       1094.1 0.10 138.4     14.5 24 -0.5    380     

 2014 0108 0954 46.0 L  58.010  15.630       GBF  2 6.7 1.1NGBF                1
                                                                               3
 STAT SP IPHASW D HRMM SECON CODA AMPLIT PERI AZIMU VELO SNR AR TRES W  DIS CAZ7
 NRS  SZ Sn    A  0956 11.8       1070.6 0.06 132.8     35.2 08 -8.6    382     
 NRS  SZ Lg    A  0956 46.5        838.9 0.05 133.7     10.9 07 11.3    382     
 SPI  SZ Pn    A  0959 23.0         49.2 0.18 175.3      7.3 05  0.4   2252     

 2014 0108 1012 13.0 L  58.620  15.420       GBF  1 0.2 0.9NGBF                1
                                                                               3
 STAT SP IPHASW D HRMM SECON CODA AMPLIT PERI AZIMU VELO SNR AR TRES W  DIS CAZ7
 NRS  SZ Pn    A  1013 00.3       1279.6 0.06 136.4     51.0 01  0.3    321     
 NRS  SZ Lg    A  1013 44.6        906.6 0.06 134.5     19.6 00 -0.2    321     

 2014 0108 1104 09.0 L  57.170  17.030       GBF  2 0.0    NGBF                1
                                                                               3
 STAT SP IPHASW D HRMM SECON CODA AMPLIT PERI AZIMU VELO SNR AR TRES W  DIS CAZ7
 NRS  SZ Pn    A  1105 18.8        242.9 0.07 137.2     16.0 02  0.0    507     
 SPI  SZ Pn    A  1108 54.5         32.4 0.20 167.7      4.8 11 -0.1   2345     

 2014 0108 1123 37.0 L  53.740  19.710       GBF  1 0.2 2.2NGBF                1
                                                                               3
 STAT SP IPHASW D HRMM SECON CODA AMPLIT PERI AZIMU VELO SNR AR TRES W  DIS CAZ7
 NRS  SZ Pn    A  1125 37.2        313.7 0.07 134.6     10.0 09  0.1    921     
 NRS  SZ Lg    A  1128 00.5        714.6 0.09 151.0     11.5 06  0.4    921     

 2014 0108 1132 21.0 L  54.120  20.620       GBF  1 0.1 2.5NGBF                1
                                                                               3
 STAT SP IPHASW D HRMM SECON CODA AMPLIT PERI AZIMU VELO SNR AR TRES W  DIS CAZ7
 NRS  SZ Pn    A  1134 20.6        674.4 0.07 123.8     16.6 15  0.2    915     
 NRS  SZ Sn    A  1135 47.9        464.2 0.12 142.2     12.6 02  0.1    915     
 NRS  SZ  s    A  1136 07.6        963.3 0.11 142.4     20.4 02         915     

 2014 0108 1138 29.0 L  55.490  18.310       GBF  1 1.1 1.9NGBF                1
                                                                               3
 STAT SP IPHASW D HRMM SECON CODA AMPLIT PERI AZIMU VELO SNR AR TRES W  DIS CAZ7
 NRS  SZ Pn    A  1140 03.1        558.4 0.08 136.6     11.7 06  0.1    706     
 NRS  SZ Sn    A  1141 08.8        726.4 0.11 144.7     13.8 01 -3.1    706     
 NRS  SZ Lg    A  1141 50.5        477.1 0.08 145.3      7.7 02 -0.4    706     

 2014 0108 1150 01.0 L  59.940  25.080       GBF  1 0.4 0.8NGBF                1
                                                                               3
 STAT SP IPHASW D HRMM SECON CODA AMPLIT PERI AZIMU VELO SNR AR TRES W  DIS CAZ7
 FIN  SZ Pn    A  1150 29.5        366.7 0.10 201.6     11.5 03  0.2    176     
 FIN  SZ Lg    A  1150 50.8        766.6 0.12 196.9      3.8 01 -0.6    176     

 2014 0108 1153 40.0 L  57.170  16.290       GBF  1 0.6 1.3NGBF                1
                                                                               3
 STAT SP IPHASW D HRMM SECON CODA AMPLIT PERI AZIMU VELO SNR AR TRES W  DIS CAZ7
 NRS  SZ Pn    A  1154 46.4        447.4 0.08 119.2     14.6 24 -0.4    482     
 NRS  SZ Sn    A  1155 37.1        543.8 0.09 148.8     12.0 05  1.4    482     
 NRS  SZ Lg    A  1155 57.9        461.7 0.12 151.3     11.0 07  0.1    482     

 2014 0108 1219 21.0 L  57.270  15.910       GBF  3 0.4 1.7NGBF                1
                                                                               3
 STAT SP IPHASW D HRMM SECON CODA AMPLIT PERI AZIMU VELO SNR AR TRES W  DIS CAZ7
 HFS  SZ Sn    A  1220 47.9        677.7 1.08 180.6      3.8 23  0.6    344     
 HFS  SZ Lg    A  1220 59.6       1619.8 0.08 155.4      9.2 01  0.2    344     
 NRS  SZ Sn    A  1221 12.3        949.6 0.06 133.9     30.7 11  0.2    460     
 NRS  SZ Lg    A  1221 31.8       1060.8 0.07 138.8     15.8 06 -0.8    460     
 NRS  SZ  s    A  1221 52.6        842.1 0.05 139.9     15.8 05         460     
 ARC  SZ  s    A  1225 54.2         77.1 0.28 225.8      6.3 22        1446     
 ARC  SZ  s    A  1225 59.4         55.8 0.13 189.0      2.8 14        1446     

 2014 0108 1302 59.0 L  55.160  24.330       GBF  1 2.1 2.0NGBF                1
                                                                               3
 STAT SP IPHASW D HRMM SECON CODA AMPLIT PERI AZIMU VELO SNR AR TRES W  DIS CAZ7
 HFS  SZ Pn    A  1304 49.0        224.0 0.10 149.4      4.3 22 -0.4    841     
 HFS  SZ Sn    A  1306 04.8        675.9 0.08 114.4      4.3 12 -5.4    841     
 HFS  SZ Lg    A  1306 59.9        312.1 0.08 112.0      3.8 14  0.5    841     

 2014 0108 1317 01.0 L  59.300  27.840       GBF  1 0.1 1.4NGBF                1
                                                                               3
 STAT SP IPHASW D HRMM SECON CODA AMPLIT PERI AZIMU VELO SNR AR TRES W  DIS CAZ7
 FIN  SZ Pn    A  1317 40.3        706.0 0.10 158.7     19.9 01  0.0    258     
 FIN  SZ Lg    A  1318 14.6       1041.4 0.25 157.9     16.2 00 -0.2    258     
 FIN  SZ  s    A  1318 19.2        520.4 0.33 156.3      4.7 00         258     

 2014 0108 1334 58.0 L  57.220  24.430       GBF  2 1.2 2.0NGBF                1
                                                                               3
 STAT SP IPHASW D HRMM SECON CODA AMPLIT PERI AZIMU VELO SNR AR TRES W  DIS CAZ7
 HFS  SZ Pn    A  1336 29.8         27.7 0.08  94.1      3.8 18 -1.6    701     
 HFS  SZ Sn    A  1337 41.5        584.1 0.08 111.8     11.2 01  1.7    701     
 ARC  SZ Lg    A  1341 30.3         79.8 0.36 184.5      3.7 01 -0.5   1375     

 2014 0108 1400 58.0 L  50.330  25.980       GBF  1 0.6 2.5NGBF                1
                                                                               3
 STAT SP IPHASW D HRMM SECON CODA AMPLIT PERI AZIMU VELO SNR AR TRES W  DIS CAZ7
 HFS  SZ Pn    A  1403 48.7        177.2 0.09 141.3      3.9 02  0.0   1338     
 HFS  SZ Sn    A  1405 51.8        493.8 0.10 136.9      4.2 02 -1.9   1338     
 HFS  SZ Lg    A  1407 20.3        378.5 0.08 163.4      4.5 24  0.1   1338     

 2014 0108 1804 11.0 L  51.160  15.840       GBF  1 0.0 1.9NGBF                1
                                                                               3
 STAT SP IPHASW D HRMM SECON CODA AMPLIT PERI AZIMU VELO SNR AR TRES W  DIS CAZ7
 HFS  SZ Pn    A  1806 21.8        243.0 0.09 146.6      6.8 24  0.1   1009     
 HFS  SZ Lg    A  1808 59.1        308.9 0.83 176.3      3.9 04 -0.1   1009     

 2014 0108 1857 47.0 L  59.630  15.680       GBF  2 0.6 0.1NGBF                1
                                                                               3
 STAT SP IPHASW D HRMM SECON CODA AMPLIT PERI AZIMU VELO SNR AR TRES W  DIS CAZ7
 HFS  SZ  p    A  1858 03.8        713.8 0.10 116.3     13.2 00         124     
 HFS  SZ Pg    A  1858 06.6        818.3 0.08 121.2      3.1 04 -0.5    124     
 HFS  SZ Lg    A  1858 22.4        610.6 0.08 106.0      3.0 10 -0.2    124     
 ARC  SZ Pn    A  1900 21.9        218.1 0.10 211.7     20.7 04  1.3   1198     

 2014 0108 2112 03.0 L  59.980  18.830       GBF  1 0.2 2.2NGBF                1
                                                                               3
 STAT SP IPHASW D HRMM SECON CODA AMPLIT PERI AZIMU VELO SNR AR TRES W  DIS CAZ7
 ARC  SZ Pn    A  2114 26.4         41.5 0.20 224.5      6.0 24  0.3   1111     
 ARC  SZ Lg    A  2117 20.0         96.1 0.50 178.2      4.9 21 -0.3   1111     
 ARC  SZ  s    A  2117 29.0         94.3 0.39 178.3      4.8 21        1111     

 2014 0108 2216 00.0 L  51.290  21.570       GBF  2 0.0    NGBF                1
                                                                               3
 STAT SP IPHASW D HRMM SECON CODA AMPLIT PERI AZIMU VELO SNR AR TRES W  DIS CAZ7
 FIN  SZ Pn    A  2218 29.6        176.6 0.53 188.6      6.0 07  0.1   1164     
 NRS  SZ Pn    A  2218 36.6        104.7 0.49 128.7     11.9 16  0.1   1220     

 2014 0109 0022 52.0 L  53.610  16.720       GBF  2 1.5    NGBF                1
                                                                               3
 STAT SP IPHASW D HRMM SECON CODA AMPLIT PERI AZIMU VELO SNR AR TRES W  DIS CAZ7
 HFS  SZ Pn    A  0024 33.3        165.4 0.39 139.6      4.6 24  2.0    750     
 NRS  SZ Pn    A  0024 42.7        153.1 0.32 170.6      5.4 14 -1.1    853     

 2014 0109 0421 05.0 L  50.950  20.190       GBF  1 0.0 2.1NGBF                1
                                                                               3
 STAT SP IPHASW D HRMM SECON CODA AMPLIT PERI AZIMU VELO SNR AR TRES W  DIS CAZ7
 HFS  SZ Pn    A  0423 26.8        228.8 0.08 135.7      8.4 19 -0.1   1101     
 HFS  SZ Lg    A  0426 19.4        388.6 0.09 167.9      3.6 12 -0.1   1101     

 2014 0109 0557 12.0 L  59.880  20.340       GBF  1 6.7 1.2NGBF                1
                                                                               3
 STAT SP IPHASW D HRMM SECON CODA AMPLIT PERI AZIMU VELO SNR AR TRES W  DIS CAZ7
 NRS  SZ Pn    A  0558 18.5        521.9 0.07 101.1     15.0 03 -1.8    495     
 NRS  SZ Lg    A  0559 45.2        132.3 0.44 114.4      8.4 17 11.7    495     

 2014 0109 0619 08.0 L  54.030  17.170       GBF  2 7.5 2.0NGBF                1
                                                                               3
 STAT SP IPHASW D HRMM SECON CODA AMPLIT PERI AZIMU VELO SNR AR TRES W  DIS CAZ7
 HFS  SZ  p    A  0621 08.0        378.9 0.65 139.4      7.0 21         712     
 HFS  SZ  s    A  0621 40.6        320.6 0.08 183.4      4.4 22         712     
 HFS  SZ Sn    A  0621 43.1        434.4 0.12 179.5      5.9 18 -8.9    712     
 HFS  SZ Lg    A  0622 29.2        211.1 0.08 185.2      4.1 23 -2.3    712     
 NRS  SZ Sn    A  0622 22.3       1499.9 0.07 145.1     15.1 08  7.6    820     
 NRS  SZ Lg    A  0623 13.6       1254.4 0.08 154.3     16.1 01 11.4    820     

 2014 0109 0737 35.0 L  52.360  24.210       GBF  2 7.1 2.6NGBF                1
                                                                               3
 STAT SP IPHASW D HRMM SECON CODA AMPLIT PERI AZIMU VELO SNR AR TRES W  DIS CAZ7
 NRS  SZ Sn    A  0742 12.8        388.3 0.12 145.9      9.8 11  8.7   1211     
 NRS  SZ  s    A  0742 35.7        510.8 0.10 145.1     10.1 10        1211     
 NRS  SZ Lg    A  0743 09.6        626.0 0.09 144.0      9.7 09-11.6   1211     
 SPI  SZ Pn    A  0743 08.7         62.6 0.13 173.8      6.5 04 -1.0   2898     

 2014 0109 0905 03.0 L  59.370  22.940       GBF  3 0.2 2.1NGBF                1
                                                                               3
 STAT SP IPHASW D HRMM SECON CODA AMPLIT PERI AZIMU VELO SNR AR TRES W  DIS CAZ7
 HFS  SZ Sn    A  0907 07.9        697.3 0.11  97.7      9.1 02  0.0    526     
 ARC  SZ  p    A  0907 49.4         79.8 0.48 186.0      8.8 01        1141     
 ARC  SZ Lg    A  0910 28.3        157.1 0.42 175.3      5.0 12 -0.5   1141     
 SPI  SZ Pn    A  0909 25.9         93.8 0.24 177.2      6.4 07 -0.1   2114     
 SPI  SZ  p    A  0909 28.6         94.8 0.21 177.1      5.0 07        2114     

 2014 0109 0931 19.0 L  56.430  15.940       GBF  1 0.4 0.7NGBF                1
                                                                               3
 STAT SP IPHASW D HRMM SECON CODA AMPLIT PERI AZIMU VELO SNR AR TRES W  DIS CAZ7
 HFS  SZ Pn    A  0932 19.4        253.1 0.08 184.2      4.3 22 -0.5    433     
 HFS  SZ Lg    A  0933 23.4        211.3 0.10 136.9      4.2 24  0.5    433     

 2014 0109 0955 32.0 L  51.370  23.790       GBF  1 0.4 2.4NGBF                1
                                                                               3
 STAT SP IPHASW D HRMM SECON CODA AMPLIT PERI AZIMU VELO SNR AR TRES W  DIS CAZ7
 HFS  SZ Pn    A  0958 01.8        563.0 0.08 117.9      6.6 24  0.6   1161     
 HFS  SZ  p    A  0958 09.8        189.9 0.08 137.8     11.9 04        1161     
 HFS  SZ Lg    A  1001 04.1        435.6 0.09 166.0      3.7 23  0.4   1161     

 2014 0109 1021 09.0 L  57.990  17.520       GBF  3 1.1 1.7NGBF                1
                                                                               3
 STAT SP IPHASW D HRMM SECON CODA AMPLIT PERI AZIMU VELO SNR AR TRES W  DIS CAZ7
 HFS  SZ Pn    A  1021 56.0        153.3 0.18 134.7      4.9 01 -0.4    324     
 HFS  SZ  p    A  1021 59.2        137.9 0.20 127.7      3.8 08         324     
 HFS  SZ Sn    A  1022 32.1        375.4 0.35 132.6      3.8 03  1.1    324     
 HFS  SZ  s    A  1022 35.6        258.1 0.53 138.1      3.2 02         324     
 HFS  SZ  s    A  1022 39.6        876.2 0.39 135.5     12.1 00         324     
 HFS  SZ Lg    A  1022 41.7        934.3 0.47 128.5      5.1 07  0.0    324     
 HFS  SZ  s    A  1022 43.7        333.4 0.25 148.1      7.9 12         324     
 HFS  SZ  s    A  1022 47.2       2566.5 0.50 131.6      9.1 04         324     
 NOA  SZ Lg    A  1023 26.4        282.0 0.27 125.1      3.7 05 -3.3    492     
 FIN  SZ Sn    A  1023 31.9        369.0 0.50 241.2      3.4 06 -0.9    616     

 2014 0109 1045 37.0 L  54.140  28.400       GBF  1 0.0 1.9NGBF                1
                                                                               3
 STAT SP IPHASW D HRMM SECON CODA AMPLIT PERI AZIMU VELO SNR AR TRES W  DIS CAZ7
 HFS  SZ Pn    A  1048 00.0         65.1 0.08 123.5      2.7 02  0.0   1109     
 HFS  SZ Sn    A  1049 44.6        280.6 0.08 113.1      4.8 07  0.0   1109     

 2014 0109 1137 12.0 L  58.230  15.040       GBF  1 0.2 0.7NGBF                1
                                                                               3
 STAT SP IPHASW D HRMM SECON CODA AMPLIT PERI AZIMU VELO SNR AR TRES W  DIS CAZ7
 HFS  SZ Pn    A  1137 46.9        458.4 0.10 144.4      3.9 15 -0.3    225     
 HFS  SZ Lg    A  1138 16.3        791.7 0.09 180.2      2.8 20 -0.2    225     

 2014 0109 1148 38.0 L  57.870  23.520       GBF  3 0.4 1.7NGBF                1
                                                                               3
 STAT SP IPHASW D HRMM SECON CODA AMPLIT PERI AZIMU VELO SNR AR TRES W  DIS CAZ7
 FIN  SZ Lg    A  1150 39.1       1111.0 0.13 215.6      8.1 14  0.3    423     
 HFS  SZ Pn    A  1150 01.9        161.5 0.35 106.3      4.2 03  0.7    618     
 NRS  SZ Lg    A  1152 12.6        145.3 0.44 119.2      9.2 09 -0.3    752     

 2014 0109 1159 54.0 L  58.620  15.810       GBF  2 0.6 1.2NGBF                1
                                                                               3
 STAT SP IPHASW D HRMM SECON CODA AMPLIT PERI AZIMU VELO SNR AR TRES W  DIS CAZ7
 HFS  SZ Pn    A  1200 26.5        413.0 0.15 147.1     11.9 03 -0.3    207     
 HFS  SZ  p    A  1200 29.1        309.5 0.10 137.0      4.6 06         207     
 HFS  SZ Lg    A  1200 52.7       2077.7 0.21 140.8     20.2 02 -0.4    207     
 HFS  SZ  s    A  1200 54.5       1485.6 0.57 140.2      8.7 03         207     
 HFS  SZ  s    A  1200 58.1        845.0 0.22 134.0      5.3 09         207     
 NRS  SZ  s    A  1201 23.8        193.2 0.16 120.9      5.1 11         336     
 NRS  SZ Lg    A  1201 31.2        152.0 0.42 112.0      9.9 20  1.1    336     

 2014 0109 1212 12.0 L  59.640  14.490       GBF  3 1.1 1.0NGBF                1
                                                                               3
 STAT SP IPHASW D HRMM SECON CODA AMPLIT PERI AZIMU VELO SNR AR TRES W  DIS CAZ7
 HFS  SZ Pg    A  1212 22.3       1464.9 0.10 145.8     12.7 04 -1.2     71     
 HFS  SZ  p    A  1212 26.2        496.8 0.08 156.6     25.1 15          71     
 HFS  SZ  s    A  1212 28.7       3009.5 0.09 143.4     23.2 02          71     
 HFS  SZ Lg    A  1212 31.8       4258.5 0.65 144.1     36.6 02 -0.6     71     
 NRS  SZ Pn    A  1212 44.7        400.5 0.11 117.7     11.0 07  0.2    204     
 NRS  SZ  s    A  1213 07.5        374.8 0.28 112.6     27.3 12         204     
 NRS  SZ Lg    A  1213 10.6        309.0 0.16 110.9     24.6 14  0.1    204     
 NOA  SZ Pn    A  1212 49.7         92.1 0.13 132.8      3.9 03  0.8    239     
 NOA  SZ Lg    A  1213 16.5        243.3 0.23 133.7      4.3 04 -3.9    239     

 2014 0109 1222 16.0 L  59.340  27.670       GBF  2 1.9 1.7NGBF                1
                                                                               3
 STAT SP IPHASW D HRMM SECON CODA AMPLIT PERI AZIMU VELO SNR AR TRES W  DIS CAZ7
 FIN  SZ Pn    A  1222 53.2       2131.6 0.10 159.8     64.7 00 -1.1    250     
 FIN  SZ Lg    A  1223 27.3       1402.7 0.18 167.4      7.0 08 -0.3    250     
 FIN  SZ  s    A  1223 32.2        662.7 0.26 161.1      4.4 02         250     
 HFS  SZ Pn    A  1224 01.3        169.7 0.10  97.1      3.6 06  1.2    789     
 HFS  SZ Lg    A  1225 56.4        313.0 0.42  88.0      4.3 02 -5.1    789     

 2014 0109 1249 40.0 L  59.990  15.330       GBF  2 1.3 0.8NGBF                1
                                                                               3
 STAT SP IPHASW D HRMM SECON CODA AMPLIT PERI AZIMU VELO SNR AR TRES W  DIS CAZ7
 HFS  SZ Pg    A  1249 52.8        825.0 0.10 104.1     24.6 04 -2.1     92     
 HFS  SZ  p    A  1249 57.0        458.5 0.08 112.6      6.2 12          92     
 HFS  SZ  p    A  1250 00.4        247.1 0.13 103.9      4.5 04          92     
 HFS  SZ Lg    A  1250 06.2        940.9 0.32 109.0      9.3 09 -0.2     92     
 HFS  SZ Rg    A  1250 14.3       1275.8 0.78 106.8      5.7 06  3.0     92     
 NRS  SZ Pn    A  1250 14.9        196.5 0.10 107.2      7.3 02 -0.3    225     
 NRS  SZ Lg    A  1250 43.2        275.4 0.38 102.6     14.2 07 -1.1    225     

 2014 0109 1354 55.0 L  59.890  18.340       GBF  1 0.4 0.9NGBF                1
                                                                               3
 STAT SP IPHASW D HRMM SECON CODA AMPLIT PERI AZIMU VELO SNR AR TRES W  DIS CAZ7
 HFS  SZ Pn    A  1355 33.5        486.3 0.08  97.2     11.2 03 -1.0    260     
 HFS  SZ  p    A  1355 37.2        280.5 0.10  97.0      4.1 03         260     
 HFS  SZ  s    A  1356 06.7        932.2 0.11 107.3      4.5 13         260     
 HFS  SZ Lg    A  1356 09.4        948.3 0.10  92.7      4.4 01  0.0    260     

