 2014 0101 0112 12.0 L  59.740  24.880       GBF  1 0.4 0.4NGBF                1
                                                                               3
 STAT SP IPHASW D HRMM SECON CODA AMPLIT PERI AZIMU VELO SNR AR TRES W  DIS CAZ7
 FIN  SZ Pn    A  0112 44.4        182.7 0.15 196.7      7.8 02  0.5    201     
 FIN  SZ Lg    A  0113 09.8        210.5 0.17 203.6      4.5 04  0.4    201     

 2014 0101 1136 58.0 L  57.800  20.000       GBF  1 0.3 0.3NGBF                1
                                                                               3
 STAT SP IPHASW D HRMM SECON CODA AMPLIT PERI AZIMU VELO SNR AR TRES W  DIS CAZ7
 HFS  SZ Pn    A  1138 00.3         14.9 0.08 125.7      2.6 02 -0.1    446     
 HFS  SZ Lg    A  1139 04.8         34.9 0.25 108.3      6.0 14 -0.6    446     

 2014 0101 1320 27.0 L  60.000  18.110       GBF  2 1.8 1.0NGBF                1
                                                                               3
 STAT SP IPHASW D HRMM SECON CODA AMPLIT PERI AZIMU VELO SNR AR TRES W  DIS CAZ7
 HFS  SZ Pn    A  1321 04.0        200.8 0.20  94.2     13.8 02 -0.7    246     
 HFS  SZ  p    A  1321 06.7        209.5 0.23  82.4      5.8 09         246     
 HFS  SZ  p    A  1321 08.9         76.7 0.20  92.2      4.8 00         246     
 HFS  SZ  s    A  1321 31.3        719.7 0.27  89.6     14.4 02         246     
 HFS  SZ  s    A  1321 34.9        521.0 0.24 100.2      6.4 08         246     
 HFS  SZ Lg    A  1321 36.3        488.7 0.23  82.1      5.8 09 -1.0    246     
 NRS  SZ Sn    A  1322 04.4         88.4 0.26 100.4      7.9 00  5.3    371     
 NRS  SZ  s    A  1322 06.0         66.2 0.27  95.5     14.0 04         371     
 NRS  SZ Lg    A  1322 13.7        126.1 0.28  87.0     12.8 12  0.6    371     

 2014 0101 1341 42.0 L  59.990  17.310       GBF  1 0.2 0.4NGBF                1
                                                                               3
 STAT SP IPHASW D HRMM SECON CODA AMPLIT PERI AZIMU VELO SNR AR TRES W  DIS CAZ7
 HFS  SZ Pn    A  1342 14.2         71.0 0.18  93.8      3.8 00  0.1    202     
 HFS  SZ Lg    A  1342 40.0        281.8 0.16  91.9      5.8 01  0.4    202     
 HFS  SZ  s    A  1342 42.7        286.9 0.15  84.4      6.2 08         202     
 HFS  SZ  s    A  1342 44.7        254.2 0.17  93.6      3.8 00         202     

 2014 0101 1406 52.0 L  55.310  27.390       GBF  1 0.1 0.9NGBF                1
                                                                               3
 STAT SP IPHASW D HRMM SECON CODA AMPLIT PERI AZIMU VELO SNR AR TRES W  DIS CAZ7
 HFS  SZ Pn    A  1408 58.2        612.0 0.08 137.5      7.2 20 -0.3    974     
 HFS  SZ Lg    A  1411 30.3         32.7 0.08  97.3      2.9 20  0.0    974     

 2014 0101 1838 00.0 L  57.160  18.870       GBF  1 0.0 2.1NGBF                1
                                                                               3
 STAT SP IPHASW D HRMM SECON CODA AMPLIT PERI AZIMU VELO SNR AR TRES W  DIS CAZ7
 ARC  SZ Pn    A  1841 00.4         39.9 0.10 216.1      5.3 19  0.0   1418     
 ARC  SZ  s    A  1843 51.6         33.6 0.40 181.3      4.4 15        1418     
 ARC  SZ Lg    A  1844 45.1         27.8 0.22 180.2      4.0 16  0.1   1418     

 2014 0102 0032 31.0 L  56.690  20.980       GBF  2 0.0    NGBF                1
                                                                               3
 STAT SP IPHASW D HRMM SECON CODA AMPLIT PERI AZIMU VELO SNR AR TRES W  DIS CAZ7
 NRS  SZ Pn    A  0034 05.1         89.2 0.45 124.7      9.4 00  0.0    707     
 SPI  SZ Pn    A  0037 22.3         45.0 0.20 174.7      8.4 01 -0.1   2405     

 2014 0102 1113 14.0 L  59.340  27.270       GBF  1 0.4 1.4NGBF                1
                                                                               3
 STAT SP IPHASW D HRMM SECON CODA AMPLIT PERI AZIMU VELO SNR AR TRES W  DIS CAZ7
 FIN  SZ Pn    A  1113 52.0        718.0 0.10 162.0     20.0 01  0.6    243     
 FIN  SZ Lg    A  1114 24.0       1414.3 0.18 167.0      5.0 03  0.4    243     

 2014 0102 1121 43.0 L  59.410  15.860       GBF  1 0.7 0.8NGBF                1
                                                                               3
 STAT SP IPHASW D HRMM SECON CODA AMPLIT PERI AZIMU VELO SNR AR TRES W  DIS CAZ7
 HFS  SZ Pg    A  1122 06.6        415.5 0.10 122.8      8.2 00  0.1    145     
 HFS  SZ  p    A  1122 09.7        406.5 0.37 132.8      6.8 09         145     
 HFS  SZ  p    A  1122 12.7        222.6 0.10 126.2      4.2 03         145     
 HFS  SZ  p    A  1122 14.8        140.0 0.08 135.4      2.6 12         145     
 HFS  SZ Lg    A  1122 24.3        832.3 0.16 119.9     13.4 03 -0.4    145     
 HFS  SZ  s    A  1122 28.5       1403.8 0.11 130.5      9.7 07         145     
 HFS  SZ Rg    A  1122 34.1       1977.7 0.85 120.3      8.5 02  1.6    145     

 2014 0102 2331 05.0 L  50.840  16.030       GBF  4 0.5 2.5NGBF                1
                                                                               3
 STAT SP IPHASW D HRMM SECON CODA AMPLIT PERI AZIMU VELO SNR AR TRES W  DIS CAZ7
 HFS  SZ Pn    A  2333 20.0         91.6 0.20 167.5      3.9 03 -0.3   1046     
 NRS  SZ Pn    A  2333 31.6        155.8 0.19 142.0     17.5 21  0.3   1137     
 FIN  SZ Pn    A  2333 54.6         67.6 0.25 204.4      5.0 07 -0.5   1333     
 FIN  SZ Sn    A  2335 59.4        150.9 0.31 207.0      4.6 05 -0.3   1333     
 ARC  SZ Pn    A  2335 32.2         11.6 0.18 185.7      4.2 12  1.2   2144     

 2014 0103 0523 18.0 L  51.140  30.750       GBF  1 0.4 2.7NGBF                1
                                                                               3
 STAT SP IPHASW D HRMM SECON CODA AMPLIT PERI AZIMU VELO SNR AR TRES W  DIS CAZ7
 NRS  SZ Pn    A  0526 40.1        286.3 0.06 147.8     17.7 24  0.0   1597     
 NRS  SZ Lg    A  0530 53.3        152.2 0.40  98.8     13.2 24 -0.9   1597     

 2014 0103 0756 20.0 L  52.460  15.800       GBF  1 0.1 2.0NGBF                1
                                                                               3
 STAT SP IPHASW D HRMM SECON CODA AMPLIT PERI AZIMU VELO SNR AR TRES W  DIS CAZ7
 NRS  SZ Pn    A  0758 24.4        271.0 0.07 155.6     13.7 06 -0.2    958     
 NRS  SZ Lg    A  0800 53.9        379.3 0.08 166.4     11.2 04  0.2    958     

 2014 0103 0943 25.0 L  57.830  14.520       GBF  1 0.1 0.6NGBF                1
                                                                               3
 STAT SP IPHASW D HRMM SECON CODA AMPLIT PERI AZIMU VELO SNR AR TRES W  DIS CAZ7
 NRS  SZ Pn    A  0944 17.6        375.4 0.07 161.1     14.5 10  0.1    366     
 NRS  SZ Sn    A  0944 55.7         83.3 0.29 146.3      8.2 04 -0.2    366     

 2014 0103 1059 42.0 L  50.460  21.500       GBF  2 1.4 2.1NGBF                1
                                                                               3
 STAT SP IPHASW D HRMM SECON CODA AMPLIT PERI AZIMU VELO SNR AR TRES W  DIS CAZ7
 HFS  SZ Pn    A  1102 14.2        406.2 0.08 145.0      6.2 07  0.2   1184     
 HFS  SZ Lg    A  1105 19.3         72.5 0.08 138.6      5.1 13 -1.0   1184     
 NRS  SZ Sn    A  1104 33.3        778.9 0.08 171.5      6.7 24  3.1   1302     

 2014 0103 1125 48.0 L  58.030  14.850       GBF  2 0.4 1.3NGBF                1
                                                                               3
 STAT SP IPHASW D HRMM SECON CODA AMPLIT PERI AZIMU VELO SNR AR TRES W  DIS CAZ7
 HFS  SZ Pn    A  1126 24.4        119.4 0.08 163.7      4.2 00 -1.0    243     
 HFS  SZ  s    A  1126 52.8        790.0 0.28 164.3     11.4 00         243     
 HFS  SZ  s    A  1126 55.4        826.0 0.40 147.0      6.7 16         243     
 HFS  SZ Lg    A  1126 57.8        519.3 0.40 165.6      4.8 01  0.2    243     
 NRS  SZ Sn    A  1127 16.8        192.3 0.31 150.5      7.7 03  0.3    355     
 NRS  SZ Lg    A  1127 29.9        319.1 0.40 140.7      7.9 05  0.5    355     

 2014 0103 1140 10.0 L  59.340  26.880       GBF  1 0.3 1.0NGBF                1
                                                                               3
 STAT SP IPHASW D HRMM SECON CODA AMPLIT PERI AZIMU VELO SNR AR TRES W  DIS CAZ7
 FIN  SZ Pn    A  1140 46.9        863.2 0.10 163.6      5.1 05  0.1    239     
 FIN  SZ Lg    A  1141 17.6        784.3 0.14 168.1      6.1 00 -0.6    239     

 2014 0103 1156 47.0 L  52.820  17.470       GBF  1 0.1 2.3NGBF                1
                                                                               3
 STAT SP IPHASW D HRMM SECON CODA AMPLIT PERI AZIMU VELO SNR AR TRES W  DIS CAZ7
 NRS  SZ Pn    A  1158 51.2        346.5 0.06 154.1     12.8 01  0.3    952     
 NRS  SZ Sn    A  1200 21.5        204.9 0.38 165.5     10.1 10 -0.1    952     

 2014 0103 1322 14.0 L  59.270  27.370       GBF  6 1.7 2.2NGBF                1
                                                                               3
 STAT SP IPHASW D HRMM SECON CODA AMPLIT PERI AZIMU VELO SNR AR TRES W  DIS CAZ7
 FIN  SZ Pn    A  1322 50.7       1901.0 0.10 165.7     39.0 02 -1.8    252     
 FIN  SZ Lg    A  1323 24.4       2039.8 0.27 160.6     30.6 02 -1.7    252     
 FIN  SZ  s    A  1323 30.1       1224.2 0.40 157.2      5.0 05         252     
 HFS  SZ Pn    A  1323 57.8        161.3 0.10  94.4      4.1 03  1.5    775     
 HFS  SZ  p    A  1324 01.3        132.5 0.08 109.3      5.4 18         775     
 HFS  SZ  s    A  1325 51.6        480.9 0.30  97.5      6.2 06         775     
 HFS  SZ Lg    A  1325 54.2        702.6 0.39 104.2      5.2 13 -1.1    775     
 HFS  SZ  s    A  1325 57.3        527.9 0.41  92.1      5.1 00         775     
 HFS  SZ  s    A  1325 59.9        228.2 0.25  89.4      3.9 01         775     
 NRS  SZ Lg    A  1326 31.8        186.7 0.32 110.1     14.1 16  1.7    896     
 NOA  SZ Pn    A  1324 14.8         76.6 0.09  90.0      3.9 05  1.3    917     
 APA  SZ Sn    A  1325 52.8       1222.0 0.24 189.1      4.1 10  0.7    969     
 ARC  SZ Pn    A  1324 41.4         40.5 0.11 176.2      5.3 01 -0.3   1148     
 ARC  SZ Sn    A  1326 35.5         31.3 0.21 179.0      4.2 04  5.8   1148     
 ARC  SZ Lg    A  1327 40.7         46.9 0.35 159.0      4.0 15 -1.2   1148     

 2014 0103 1604 11.0 L  53.390  16.460       GBF  1 0.1 1.7NGBF                1
                                                                               3
 STAT SP IPHASW D HRMM SECON CODA AMPLIT PERI AZIMU VELO SNR AR TRES W  DIS CAZ7
 HFS  SZ Pn    A  1605 52.8         23.6 0.08 190.1      2.8 23  0.1    770     
 HFS  SZ Lg    A  1607 51.1        577.6 0.08 142.7      4.7 23  0.2    770     

 2014 0103 1635 39.0 L  58.660  31.670       GBF  1 0.2 1.4NGBF                1
                                                                               3
 STAT SP IPHASW D HRMM SECON CODA AMPLIT PERI AZIMU VELO SNR AR TRES W  DIS CAZ7
 HFS  SZ Pn    A  1637 52.7         63.6 0.08  79.7      2.8 11  0.3   1031     
 HFS  SZ Lg    A  1640 33.8         88.0 0.08  95.1     12.4 03  0.3   1031     
 HFS  SZ  s    A  1640 44.8         60.0 0.08 112.2      2.8 20        1031     

 2014 0103 1652 56.0 L  58.590  18.560       GBF  1 0.2 0.5NGBF                1
                                                                               3
 STAT SP IPHASW D HRMM SECON CODA AMPLIT PERI AZIMU VELO SNR AR TRES W  DIS CAZ7
 HFS  SZ Pn    A  1653 43.8         39.2 0.08 101.8      3.2 18  0.3    325     
 HFS  SZ Lg    A  1654 29.1        238.4 0.08 144.0      4.3 24  0.2    325     

 2014 0103 1942 04.0 L  59.480  19.920       GBF  2 0.2    NGBF                1
                                                                               3
 STAT SP IPHASW D HRMM SECON CODA AMPLIT PERI AZIMU VELO SNR AR TRES W  DIS CAZ7
 NRS  SZ Pn    A  1943 11.6         38.1 0.30 118.2      9.1 15  0.3    486     
 SPI  SZ Pn    A  1946 24.5         45.6 0.22 179.4      7.4 05 -0.2   2091     
 SPI  SZ  p    A  1946 28.2         37.6 0.24 180.4      6.6 06        2091     
 SPI  SZ  p    A  1946 31.4         51.4 0.25 191.2      3.4 16        2091     

 2014 0104 1042 35.0 L  55.880  30.340       GBF  2 4.5 1.7NGBF                1
                                                                               3
 STAT SP IPHASW D HRMM SECON CODA AMPLIT PERI AZIMU VELO SNR AR TRES W  DIS CAZ7
 HFS  SZ Pn    A  1044 57.2        272.8 0.08  90.4      4.5 18  1.8   1088     
 HFS  SZ Lg    A  1047 35.3         78.8 0.08 119.8      3.0 11-10.5   1088     
 ARC  SZ Lg    A  1049 53.9         24.2 0.24 143.9      3.8 24 -1.3   1541     

 2014 0104 1137 23.0 L  59.300  28.910       GBF  1 1.4 2.3NGBF                1
                                                                               3
 STAT SP IPHASW D HRMM SECON CODA AMPLIT PERI AZIMU VELO SNR AR TRES W  DIS CAZ7
 HFS  SZ Pn    A  1139 15.8         58.2 0.08  90.1      5.2 00  0.3    859     
 HFS  SZ Sn    A  1140 35.1       1262.7 0.08 104.4      3.2 14 -2.8    859     
 HFS  SZ Lg    A  1141 29.5        205.2 0.08  83.9      4.0 05  1.1    859     

 2014 0104 1338 02.0 L  58.490  21.460       GBF  1 0.1 0.3NGBF                1
                                                                               3
 STAT SP IPHASW D HRMM SECON CODA AMPLIT PERI AZIMU VELO SNR AR TRES W  DIS CAZ7
 HFS  SZ Pn    A  1339 08.1        504.3 1.08  85.9      3.3 23 -0.2    478     
 HFS  SZ Sn    A  1339 56.8        100.1 0.08 121.8      5.3 12  0.1    478     

 2014 0104 1827 29.0 L  50.490  21.010       GBF  1 0.2 2.1NGBF                1
                                                                               3
 STAT SP IPHASW D HRMM SECON CODA AMPLIT PERI AZIMU VELO SNR AR TRES W  DIS CAZ7
 HFS  SZ Pn    A  1829 58.8         17.0 0.08 129.3      3.9 24 -0.3   1168     
 HFS  SZ Sn    A  1831 49.2        114.1 0.18 176.3      5.8 22  0.1   1168     

 2014 0104 2126 32.0 L  51.570  18.720       GBF  2 0.1    NGBF                1
                                                                               3
 STAT SP IPHASW D HRMM SECON CODA AMPLIT PERI AZIMU VELO SNR AR TRES W  DIS CAZ7
 HFS  SZ Pn    A  2128 42.3        123.3 0.41 159.3      3.8 00  0.2   1004     
 SPI  SZ Pn    A  2132 12.5        135.5 0.18 171.6      7.4 05 -0.1   2971     

 2014 0104 2312 20.0 L  59.820  14.320       GBF  1 0.2 2.2NGBF                1
                                                                               3
 STAT SP IPHASW D HRMM SECON CODA AMPLIT PERI AZIMU VELO SNR AR TRES W  DIS CAZ7
 ARC  SZ Pn    A  2314 54.4         73.2 0.20 208.8     20.3 02  0.0   1204     
 ARC  SZ  p    A  2314 58.4         35.3 0.23 212.4      7.2 01        1204     
 ARC  SZ  p    A  2315 04.0         27.9 0.24 232.8      3.9 21        1204     
 ARC  SZ Lg    A  2318 04.3         51.1 0.24 216.8      4.7 05  0.5   1204     

 2014 0105 0949 10.0 L  59.520  22.690       GBF  1 0.1 1.0NGBF                1
                                                                               3
 STAT SP IPHASW D HRMM SECON CODA AMPLIT PERI AZIMU VELO SNR AR TRES W  DIS CAZ7
 HFS  SZ Pn    A  0950 19.8         96.1 0.08 108.5      4.2 14 -0.2    509     
 HFS  SZ Sn    A  0951 11.2        346.0 0.10  81.2      6.0 12  0.0    509     

 2014 0105 1337 39.0 L  59.460  32.840       GBF  2 0.4 2.2NGBF                1
                                                                               3
 STAT SP IPHASW D HRMM SECON CODA AMPLIT PERI AZIMU VELO SNR AR TRES W  DIS CAZ7
 FIN  SZ Pn    A  1338 40.7         61.6 0.33 115.0      7.0 02  0.9    433     
 HFS  SZ Sn    A  1341 38.8         40.7 0.08  77.1      2.7 08 -0.3   1074     
 HFS  SZ Lg    A  1342 45.7        359.3 0.08  93.9      6.8 08  0.0   1074     
 HFS  SZ  s    A  1342 53.3        452.9 0.08 105.9      3.9 20        1074     

 2014 0105 1410 26.0 L  54.990  16.280       GBF  1 1.2 1.4NGBF                1
                                                                               3
 STAT SP IPHASW D HRMM SECON CODA AMPLIT PERI AZIMU VELO SNR AR TRES W  DIS CAZ7
 HFS  SZ Pn    A  1411 46.3         16.2 0.08 142.7      2.8 21 -0.1    594     
 HFS  SZ Sn    A  1412 48.1        218.5 0.10 163.2      7.9 00  3.0    594     
 HFS  SZ Lg    A  1413 15.0        738.6 0.08 172.7      2.5 08 -0.7    594     

 2014 0105 1407 28.0 L  56.080  27.960       GBF  1 0.1 1.2NGBF                1
                                                                               3
 STAT SP IPHASW D HRMM SECON CODA AMPLIT PERI AZIMU VELO SNR AR TRES W  DIS CAZ7
 HFS  SZ Pn    A  1409 31.8         64.9 0.13  98.5      2.5 13 -0.1    952     
 HFS  SZ Lg    A  1411 59.8         62.1 0.08 112.0      6.7 00 -0.2    952     
 HFS  SZ  s    A  1412 09.3         51.3 0.08 121.7      2.6 09         952     

 2014 0105 1744 53.0 L  59.590  18.480       GBF  4 3.4 1.1NGBF                1
                                                                               3
 STAT SP IPHASW D HRMM SECON CODA AMPLIT PERI AZIMU VELO SNR AR TRES W  DIS CAZ7
 HFS  SZ Pn    A  1745 34.8        340.0 0.23  94.3     31.6 06  0.6    274     
 HFS  SZ  p    A  1745 36.8        492.6 0.25  89.8      4.9 10         274     
 HFS  SZ Sn    A  1746 03.6       1057.2 0.19  80.2     19.2 20 -0.7    274     
 NRS  SZ  p    A  1745 56.0         40.2 0.22  84.9      6.2 20         405     
 NRS  SZ Sn    A  1746 39.0         93.1 0.27  94.6     11.5 10  6.7    405     
 NRS  SZ  s    A  1746 45.0        175.7 0.26  88.0      4.3 17         405     
 NRS  SZ Lg    A  1746 48.4        158.9 0.27  95.7      5.3 09 -0.4    405     
 FIN  SZ Lg    A  1747 14.9        156.0 0.27 262.1      5.6 15  8.9    465     
 SPI  SZ  p    A  1749 41.6         52.9 0.13 180.1      3.4 03        2076     

 2014 0105 2028 56.0 L  59.600  16.480       GBF  1 5.1-0.9NGBF                1
                                                                               3
 STAT SP IPHASW D HRMM SECON CODA AMPLIT PERI AZIMU VELO SNR AR TRES W  DIS CAZ7
 HFS  SZ Pn    A  2029 24.3         26.1 0.08 102.2      2.8 07  1.5    166     
 HFS  SZ Lg    A  2029 34.8         36.0 0.07 111.4      3.0 01 -8.8    166     

 2014 0105 2056 41.0 L  57.980  28.980       GBF  1 4.8 2.0NGBF                1
                                                                               3
 STAT SP IPHASW D HRMM SECON CODA AMPLIT PERI AZIMU VELO SNR AR TRES W  DIS CAZ7
 ARC  SZ Pn    A  2059 26.7          4.9 0.23 146.5      4.2 24 -0.3   1299     
 ARC  SZ Lg    A  2103 01.6         29.3 0.38 180.2      4.5 09  9.5   1299     

 2014 0106 0214 43.0 L  51.970  16.460       GBF  3 2.0 1.3NGBF                1
                                                                               3
 STAT SP IPHASW D HRMM SECON CODA AMPLIT PERI AZIMU VELO SNR AR TRES W  DIS CAZ7
 NRS  SZ Pn    A  0216 53.5         35.3 0.20 157.3     10.1 03 -1.8   1022     
 NRS  SZ Sn    A  0218 36.9         37.6 0.16 153.0     12.3 07  4.6   1022     
 FIN  SZ Pn    A  0217 18.0         38.7 0.25 201.3      5.1 12  0.3   1206     
 SPI  SZ Pn    A  0220 21.3         96.7 0.17 177.6      6.7 02  1.4   2925     
 SPI  SZ  p    A  0220 36.5         90.7 0.26 184.9      6.9 05        2925     

 2014 0106 0520 53.0 L  52.430  15.820       GBF  1 0.1 2.0NGBF                1
                                                                               3
 STAT SP IPHASW D HRMM SECON CODA AMPLIT PERI AZIMU VELO SNR AR TRES W  DIS CAZ7
 NRS  SZ Pn    A  0522 58.0        222.5 0.07 156.2     10.9 06  0.1    961     
 NRS  SZ Sn    A  0524 29.3        434.7 0.08 169.8     14.6 07 -0.1    961     

