 2014 0116 1352 02.0 L  58.820  14.090       GBF  1 0.7 0.6NGBF                1
                                                                               3
 STAT SP IPHASW D HRMM SECON CODA AMPLIT PERI AZIMU VELO SNR AR TRES W  DIS CAZ7
 HFS  SZ  p    A  1352 22.1        463.2 0.08 155.5     10.1 15         148     
 HFS  SZ Pg    A  1352 26.2        191.9 0.08 167.8      4.8 03  0.3    148     
 HFS  SZ Lg    A  1352 45.5        639.2 0.16 169.8      6.0 01  1.2    148     

 2014 0116 1640 40.0 L  60.000  17.710       GBF  1 0.4 0.3NGBF                1
                                                                               3
 STAT SP IPHASW D HRMM SECON CODA AMPLIT PERI AZIMU VELO SNR AR TRES W  DIS CAZ7
 HFS  SZ Pn    A  1641 15.2        203.4 0.10  95.4      6.7 03  0.2    223     
 HFS  SZ Lg    A  1641 43.3        292.3 0.11  90.0      2.7 02 -0.6    223     

 2014 0116 1752 37.0 L  57.830  18.040       GBF  2 2.2 0.4NGBF                1
                                                                               3
 STAT SP IPHASW D HRMM SECON CODA AMPLIT PERI AZIMU VELO SNR AR TRES W  DIS CAZ7
 HFS  SZ Sn    A  1753 59.9        117.7 0.08 116.4      4.7 17 -6.3    358     
 HFS  SZ Lg    A  1754 19.2        209.0 0.08 133.7      4.1 00  0.0    358     
 SPI  SZ Pn    A  1757 15.9         16.9 0.23 158.5      6.3 18  0.4   2272     

 2014 0116 2303 50.0 L  57.660  16.300       GBF  3 3.6 1.9NGBF                1
                                                                               3
 STAT SP IPHASW D HRMM SECON CODA AMPLIT PERI AZIMU VELO SNR AR TRES W  DIS CAZ7
 HFS  SZ Sn    A  2305 03.2        845.6 1.08 174.0      3.9 23 -6.6    314     
 ARC  SZ Pn    A  2306 46.4         30.5 0.13 215.6      4.3 12 -1.5   1397     
 ARC  SZ  s    A  2310 28.4         96.5 0.18 214.9      6.3 11        1397     
 ARC  SZ Lg    A  2310 34.1         50.1 0.21 220.6      3.8 17  5.0   1397     
 SPI  SZ Pn    A  2308 31.7        926.1 0.25 194.7     83.3 14  1.3   2290     
 SPI  SZ  p    A  2308 37.2       2134.4 0.27 195.3     42.1 15        2290     
 SPI  SZ  p    A  2308 42.3       1194.8 0.30 194.1     11.3 14        2290     
 SPI  SZ  p    A  2308 42.4       1082.9 0.25 194.5      9.2 14        2290     

 2014 0117 1208 32.0 L  58.300  27.630       GBF  4 1.8 2.2NGBF                1
                                                                               3
 STAT SP IPHASW D HRMM SECON CODA AMPLIT PERI AZIMU VELO SNR AR TRES W  DIS CAZ7
 FIN  SZ Pn    A  1209 23.7        796.0 0.10 158.7     19.3 06 -0.3    361     
 FIN  SZ Sn    A  1209 57.2       1414.1 0.30 162.0     28.1 03 -4.7    361     
 HFS  SZ Lg    A  1212 26.9        528.1 0.51  95.9      5.0 02  0.5    820     
 NRS  SZ Lg    A  1213 01.8         93.9 0.23  79.5      4.6 20 -1.1    948     
 ARC  SZ Lg    A  1214 34.0        120.5 0.40 174.5      4.4 00  2.8   1258     
 ARC  SZ  s    A  1214 35.9         62.5 0.35 181.9      4.3 07        1258     

 2014 0117 1218 02.0 L  59.300  27.450       GBF  1 0.1 1.6NGBF                1
                                                                               3
 STAT SP IPHASW D HRMM SECON CODA AMPLIT PERI AZIMU VELO SNR AR TRES W  DIS CAZ7
 FIN  SZ Pn    A  1218 40.2        361.0 0.10 160.3     16.7 01 -0.1    251     
 FIN  SZ Lg    A  1219 13.5       2221.8 0.23 162.7     22.5 00 -0.2    251     
 FIN  SZ  s    A  1219 19.4        435.8 0.26 160.2      4.4 01         251     

 2014 0117 1219 38.0 L  59.660  32.650       GBF  1 0.0 2.1NGBF                1
                                                                               3
 STAT SP IPHASW D HRMM SECON CODA AMPLIT PERI AZIMU VELO SNR AR TRES W  DIS CAZ7
 NRS  SZ Pn    A  1222 08.6        405.2 0.06  85.1      8.6 01  0.0   1172     
 NRS  SZ Lg    A  1225 12.7         55.9 0.29  94.8      5.7 08 -0.1   1172     

 2014 0117 1313 52.0 L  57.190  21.290       GBF  1 0.2 1.2NGBF                1
                                                                               3
 STAT SP IPHASW D HRMM SECON CODA AMPLIT PERI AZIMU VELO SNR AR TRES W  DIS CAZ7
 HFS  SZ Pn    A  1315 06.8        129.3 0.08 128.3      3.9 04 -0.1    549     
 HFS  SZ Lg    A  1316 28.3        185.6 0.24 120.4      6.2 03 -0.5    549     

 2014 0117 1637 12.0 L  59.990  17.710       GBF  2 0.3 1.2NGBF                1
                                                                               3
 STAT SP IPHASW D HRMM SECON CODA AMPLIT PERI AZIMU VELO SNR AR TRES W  DIS CAZ7
 HFS  SZ Pn    A  1637 47.3        100.3 0.18  86.7      4.3 05  0.3    224     
 HFS  SZ Lg    A  1638 15.6        269.9 0.13  94.6      5.3 02 -0.4    224     
 ARC  SZ  s    A  1641 13.0         48.6 0.41 191.7      4.4 11        1126     

 2014 0117 1649 37.0 L  58.160  21.650       GBF  3 0.2 1.6NGBF                1
                                                                               3
 STAT SP IPHASW D HRMM SECON CODA AMPLIT PERI AZIMU VELO SNR AR TRES W  DIS CAZ7
 NRS  SZ Sn    A  1652 05.9         76.5 0.45  92.8      8.4 19  0.0    640     
 ARC  SZ Lg    A  1655 43.2         32.7 0.36 179.8      4.6 10  0.1   1282     
 SPI  SZ Pn    A  1654 12.0          9.9 0.15 159.3      4.3 12 -0.6   2243     

 2014 0118 0706 41.0 L  59.430  15.440       GBF  2 0.3 0.9NGBF                1
                                                                               3
 STAT SP IPHASW D HRMM SECON CODA AMPLIT PERI AZIMU VELO SNR AR TRES W  DIS CAZ7
 HFS  SZ Pg    A  0707 01.6        125.1 0.08 152.1      2.6 23  0.3    125     
 HFS  SZ Lg    A  0707 16.4        303.5 0.09 141.7      4.5 13 -0.5    125     
 ARC  SZ Lg    A  0712 30.7         37.0 0.36 204.4      4.2 03  0.2   1224     

 2014 0118 1206 04.0 L  57.570  22.230       GBF  3 0.2 2.3NGBF                1
                                                                               3
 STAT SP IPHASW D HRMM SECON CODA AMPLIT PERI AZIMU VELO SNR AR TRES W  DIS CAZ7
 HFS  SZ Pn    A  1207 21.3        348.4 0.34 139.6     15.8 23  0.0    569     
 ARC  SZ Lg    A  1212 28.7         53.7 0.35 197.8      5.7 09  0.7   1344     
 SPI  SZ Pn    A  1210 46.4        162.3 0.12 153.8      4.1 17  0.0   2311     

 2014 0118 1319 51.0 L  55.430  14.380       GBF  3 1.0 2.4NGBF                1
                                                                               3
 STAT SP IPHASW D HRMM SECON CODA AMPLIT PERI AZIMU VELO SNR AR TRES W  DIS CAZ7
 HFS  SZ Pn    A  1321 01.8        122.3 0.18 158.6      4.6 16 -1.3    526     
 ARC  SZ Lg    A  1327 47.8         59.7 0.38 204.8      7.5 00  0.4   1668     
 ARC  SZ  s    A  1327 51.0         37.8 0.38 207.4      5.3 02        1668     
 SPI  SZ Pn    A  1324 57.0         42.2 0.18 170.3      4.5 12  1.6   2540     

 2014 0118 1639 37.0 L  56.620  16.530       GBF  3 0.7    NGBF                1
                                                                               3
 STAT SP IPHASW D HRMM SECON CODA AMPLIT PERI AZIMU VELO SNR AR TRES W  DIS CAZ7
 HFS  SZ Pn    A  1640 37.4         68.2 0.20 166.8      3.9 10  0.6    425     
 HFS  SZ  p    A  1640 46.7         60.3 0.20 176.9      3.9 21         425     
 NRS  SZ Pn    A  1640 49.5         60.0 0.20 122.6     12.5 23 -1.5    542     
 ARC  SZ Pn    A  1642 48.0         46.9 0.42 194.4      7.9 07 -0.2   1507     

 2014 0118 1841 48.0 L  58.520  23.380       GBF  3 0.9 1.8NGBF                1
                                                                               3
 STAT SP IPHASW D HRMM SECON CODA AMPLIT PERI AZIMU VELO SNR AR TRES W  DIS CAZ7
 FIN  SZ Lg    A  1843 28.8        263.1 0.46 188.9      3.9 17 -1.7    358     
 HFS  SZ Pn    A  1843 07.2         39.9 0.27 126.7      3.2 22  0.6    579     
 ARC  SZ  s    A  1846 34.2         71.0 0.37 161.3      3.8 24        1233     
 ARC  SZ Lg    A  1847 40.6        106.1 0.40 198.9      9.6 13  0.6   1233     
 ARC  SZ  s    A  1847 47.0         87.7 0.46 200.9      3.8 15        1233     

 2014 0118 2118 00.0 L  56.230  25.100       GBF  3 0.4 2.7NGBF                1
                                                                               3
 STAT SP IPHASW D HRMM SECON CODA AMPLIT PERI AZIMU VELO SNR AR TRES W  DIS CAZ7
 HFS  SZ Pn    A  2119 45.8         23.9 0.08  98.8      2.7 19  0.7    798     
 ARC  SZ Lg    A  2125 03.7        111.4 0.37 204.7      9.8 23 -0.2   1484     
 SPI  SZ Pn    A  2122 57.6         43.4 0.31 172.2      3.7 05 -0.3   2473     

 2014 0118 2227 52.0 L  55.270  28.900       GBF  3 0.5 2.6NGBF                1
                                                                               3
 STAT SP IPHASW D HRMM SECON CODA AMPLIT PERI AZIMU VELO SNR AR TRES W  DIS CAZ7
 HFS  SZ  p    A  2230 37.2         85.4 0.34 125.6      4.1 11        1053     
 HFS  SZ Lg    A  2232 53.0        824.1 1.28 114.1      3.8 00  0.3   1053     
 ARC  SZ Lg    A  2235 28.4        190.6 0.40 179.0     11.2 06 -0.5   1600     
 SPI  SZ Pn    A  2233 01.4         35.0 0.22 166.2      4.4 04 -0.8   2602     

 2014 0118 2345 48.0 L  51.290  16.150       GBF  3 0.4 2.3NGBF                1
                                                                               3
 STAT SP IPHASW D HRMM SECON CODA AMPLIT PERI AZIMU VELO SNR AR TRES W  DIS CAZ7
 HFS  SZ Pn    A  2347 56.9         61.6 0.20 172.7      4.6 02 -0.4    997     
 HFS  SZ  p    A  2348 00.6        449.0 0.90 150.6      4.6 19         997     
 NRS  SZ Pn    A  2348 08.6         66.2 0.20 144.3      8.1 18  0.0   1090     
 NRS  SZ Sn    A  2349 51.1         66.3 0.21 166.9      7.3 04 -0.5   1090     
 FIN  SZ Pn    A  2348 32.9        116.2 0.25 193.6      9.0 19  0.7   1284     
 FIN  SZ Sn    A  2350 33.1        247.3 0.31 203.9      6.6 08  0.8   1284     
 FIN  SZ  s    A  2350 37.6        230.3 0.30 213.4      4.3 00        1284     

 2014 0119 0108 13.0 L  59.990  17.710       GBF  1 0.2 0.6NGBF                1
                                                                               3
 STAT SP IPHASW D HRMM SECON CODA AMPLIT PERI AZIMU VELO SNR AR TRES W  DIS CAZ7
 HFS  SZ Pn    A  0108 48.1         89.8 0.20  91.0      4.5 01  0.1    224     
 HFS  SZ  s    A  0109 14.2        321.8 0.21  87.2      5.8 05         224     
 HFS  SZ Lg    A  0109 17.4        266.7 0.18  91.1      5.9 01  0.4    224     

 2014 0119 0119 32.0 L  56.790  21.280       GBF  3 0.4 2.0NGBF                1
                                                                               3
 STAT SP IPHASW D HRMM SECON CODA AMPLIT PERI AZIMU VELO SNR AR TRES W  DIS CAZ7
 NRS  SZ Sn    A  0122 15.9         75.0 0.45 122.1      8.1 01 -0.4    713     
 ARC  SZ  s    A  0126 20.5        142.5 0.45 197.0      8.0 06        1436     
 ARC  SZ Lg    A  0126 22.6        143.5 0.48 197.9      4.0 07  0.4   1436     
 SPI  SZ Pn    A  0124 22.9         12.5 0.23 177.0      4.7 04  0.5   2394     

 2014 0119 0136 15.0 L  56.630  15.340       GBF  3 0.5 1.9NGBF                1
                                                                               3
 STAT SP IPHASW D HRMM SECON CODA AMPLIT PERI AZIMU VELO SNR AR TRES W  DIS CAZ7
 HFS  SZ  p    A  0137 38.4        124.1 0.50 177.9      4.8 12         402     
 HFS  SZ  p    A  0137 40.6        261.2 0.43 184.2      8.9 18         402     
 HFS  SZ Sn    A  0137 55.1        292.5 0.60 167.7      2.5 02  1.4    402     
 ARC  SZ  s    A  0143 25.6         52.5 0.40 187.7      4.6 16        1524     
 ARC  SZ Lg    A  0143 30.0        154.4 0.45 201.0     11.9 03 -0.3   1524     
 SPI  SZ Pn    A  0141 06.6         14.1 0.16 191.3      4.4 09  0.1   2406     

 2014 0119 0146 32.0 L  52.090  18.430       GBF  3 7.7 2.4NGBF                1
                                                                               3
 STAT SP IPHASW D HRMM SECON CODA AMPLIT PERI AZIMU VELO SNR AR TRES W  DIS CAZ7
 HFS  SZ Lg    A  0151 12.6       1027.8 1.16 144.8      4.1 15 11.3    942     
 FIN  SZ Lg    A  0151 46.3        163.0 0.24 231.4      2.9 23-11.5   1140     
 SPI  SZ Pn    A  0152 07.3         13.6 0.16 186.7      4.3 09 -0.5   2912     

 2014 0119 0234 17.0 L  59.090  18.740       GBF  3 0.4 1.7NGBF                1
                                                                               3
 STAT SP IPHASW D HRMM SECON CODA AMPLIT PERI AZIMU VELO SNR AR TRES W  DIS CAZ7
 FIN  SZ Lg    A  0236 35.3        205.8 0.35 255.5      5.3 15  0.2    483     
 ARC  SZ Lg    A  0240 01.6         35.6 0.34 221.3      5.2 22 -0.5   1208     
 SPI  SZ Pn    A  0238 42.4         11.6 0.24 194.3      4.4 18  0.6   2133     

 2014 0119 1230 20.0 L  53.230  22.730       GBF  1 0.1 2.3NGBF                1
                                                                               3
 STAT SP IPHASW D HRMM SECON CODA AMPLIT PERI AZIMU VELO SNR AR TRES W  DIS CAZ7
 FIN  SZ Pn    A  1232 21.9        228.6 0.10 200.3      5.9 06  0.0    936     
 FIN  SZ Lg    A  1234 47.4        185.1 0.34 185.8      4.4 08 -0.2    936     

 2014 0119 1248 33.0 L  59.580  18.020       GBF  2 1.9 1.1NGBF                1
                                                                               3
 STAT SP IPHASW D HRMM SECON CODA AMPLIT PERI AZIMU VELO SNR AR TRES W  DIS CAZ7
 HFS  SZ Pn    A  1249 12.1        869.5 0.20  89.7     26.3 12  0.9    250     
 HFS  SZ  p    A  1249 14.1        215.0 0.20  95.8      8.0 06         250     
 HFS  SZ  s    A  1249 38.8       1691.9 0.18  90.3     21.0 12         250     
 HFS  SZ Lg    A  1249 43.9       1051.8 0.18 118.8      8.4 16 -0.5    250     
 NRS  SZ Sn    A  1250 13.5        221.5 0.16 108.0      8.9 01  6.2    382     
 NRS  SZ  s    A  1250 17.8        192.6 0.16 115.5     14.4 08         382     
 NRS  SZ Lg    A  1250 22.0        222.6 0.16 106.5      5.3 00 -0.2    382     

 2014 0119 1924 49.0 L  57.850  32.940       GBF  1 0.3 1.5NGBF                1
                                                                               3
 STAT SP IPHASW D HRMM SECON CODA AMPLIT PERI AZIMU VELO SNR AR TRES W  DIS CAZ7
 FIN  SZ Pn    A  1926 05.5        387.5 0.60 133.1      7.6 00  0.7    557     
 FIN  SZ Lg    A  1927 28.2        213.9 0.34 133.7      3.9 00  0.1    557     

 2014 0120 0238 54.0 L  59.190  15.240       GBF  4 1.0 2.5NGBF                1
                                                                               3
 STAT SP IPHASW D HRMM SECON CODA AMPLIT PERI AZIMU VELO SNR AR TRES W  DIS CAZ7
 HFS  SZ Pg    A  0239 18.0        223.5 0.55 153.6      3.9 13  1.9    137     
 FIN  SZ Lg    A  0241 58.9        540.2 0.25 254.0      5.9 02 -0.5    649     
 ARC  SZ Sn    A  0243 30.9        332.7 0.37 213.1     37.3 05 -0.8   1252     
 ARC  SZ  s    A  0243 34.7        313.2 0.41 208.1     18.0 00        1252     
 ARC  SZ  s    A  0243 38.0        230.1 0.43 205.1      8.3 02        1252     
 SPI  SZ  p    A  0243 30.0        362.1 0.13 205.3      5.9 23        2121     

 2014 0120 0301 33.0 L  56.630  16.710       GBF  3 6.6 2.4NGBF                1
                                                                               3
 STAT SP IPHASW D HRMM SECON CODA AMPLIT PERI AZIMU VELO SNR AR TRES W  DIS CAZ7
 FIN  SZ Lg    A  0305 02.0        298.6 0.26 253.0      3.7 23 -7.7    758     
 ARC  SZ Lg    A  0308 54.0        143.8 0.43 199.1      6.9 02 11.7   1503     
 SPI  SZ Pn    A  0306 24.1        101.9 0.12 195.6     15.0 16 -0.4   2405     
 SPI  SZ  p    A  0306 26.1         97.4 0.14 193.3     11.2 13        2405     

 2014 0120 0400 38.0 L  59.210  16.440       GBF  3 0.7 2.1NGBF                1
                                                                               3
 STAT SP IPHASW D HRMM SECON CODA AMPLIT PERI AZIMU VELO SNR AR TRES W  DIS CAZ7
 FIN  SZ Lg    A  0403 26.5        366.3 0.32 265.2      3.5 16  0.7    587     
 ARC  SZ Lg    A  0406 29.1         70.2 0.33 184.3      6.5 20  0.0   1229     
 SPI  SZ Pn    A  0405 00.1        449.4 0.11 198.7     22.7 18 -1.3   2118     

 2014 0120 0618 14.0 L  56.770  16.660       GBF  3 2.8 2.4NGBF                1
                                                                               3
 STAT SP IPHASW D HRMM SECON CODA AMPLIT PERI AZIMU VELO SNR AR TRES W  DIS CAZ7
 FIN  SZ Sn    A  0620 57.6        303.5 0.29 254.0      5.1 23 -8.1    749     
 ARC  SZ Lg    A  0625 19.0         90.5 0.40 222.5      7.2 21 -0.2   1489     
 SPI  SZ Pn    A  0623 04.2         37.2 0.12 189.1      4.4 09  0.2   2390     

 2014 0120 1018 47.0 L  58.590  16.950       GBF  2 0.0    NGBF                1
                                                                               3
 STAT SP IPHASW D HRMM SECON CODA AMPLIT PERI AZIMU VELO SNR AR TRES W  DIS CAZ7
 FIN  SZ Pn    A  1020 08.1        255.2 0.10 242.2      6.0 00  0.1    599     
 SPI  SZ Pn    A  1023 17.3         98.0 0.11 182.2     11.9 03  0.1   2187     

 2014 0120 1207 09.0 L  58.800  17.190       GBF  1 0.2 0.1NGBF                1
                                                                               3
 STAT SP IPHASW D HRMM SECON CODA AMPLIT PERI AZIMU VELO SNR AR TRES W  DIS CAZ7
 HFS  SZ Pn    A  1207 46.4         62.2 0.08 125.2      2.6 00 -0.5    247     
 HFS  SZ Lg    A  1208 19.8        220.7 0.08 125.3      3.4 00  0.1    247     

 2014 0120 1402 37.0 L  58.640  14.660       GBF  1 0.2 0.5NGBF                1
                                                                               3
 STAT SP IPHASW D HRMM SECON CODA AMPLIT PERI AZIMU VELO SNR AR TRES W  DIS CAZ7
 HFS  SZ Pn    A  1403 04.8        204.4 0.08 152.9      4.1 08 -0.4    176     
 HFS  SZ Lg    A  1403 27.3        327.9 0.15 171.0      2.6 09  0.0    176     

 2014 0121 0115 16.0 L  59.490  18.350       GBF  3 0.6 1.3NGBF                1
                                                                               3
 STAT SP IPHASW D HRMM SECON CODA AMPLIT PERI AZIMU VELO SNR AR TRES W  DIS CAZ7
 NRS  SZ Lg    A  0117 12.1        108.6 0.45 127.6     10.4 20  1.0    403     
 ARC  SZ Sn    A  0119 35.6         23.4 0.24 222.3      3.5 21 -0.7   1170     
 SPI  SZ Pn    A  0119 36.6         15.4 0.12 193.2      4.3 16  0.2   2088     

 2014 0121 0932 46.0 L  59.620  16.080       GBF  1 0.2 0.0NGBF                1
                                                                               3
 STAT SP IPHASW D HRMM SECON CODA AMPLIT PERI AZIMU VELO SNR AR TRES W  DIS CAZ7
 HFS  SZ Pg    A  0933 09.9        295.6 0.08 105.9      5.4 06  0.5    145     
 HFS  SZ Lg    A  0933 27.6        303.7 0.08 119.6      2.6 07  0.0    145     

 2014 0121 0942 15.0 L  59.790  17.510       GBF  1 0.2 0.7NGBF                1
                                                                               3
 STAT SP IPHASW D HRMM SECON CODA AMPLIT PERI AZIMU VELO SNR AR TRES W  DIS CAZ7
 HFS  SZ Pn    A  0942 49.1        175.5 0.08  99.3      2.8 00  0.2    216     
 HFS  SZ Lg    A  0943 17.1        305.4 0.29  92.4      4.4 06  0.3    216     

 2014 0121 1002 06.0 L  58.820  23.590       GBF  3 1.0 1.1NGBF                1
                                                                               3
 STAT SP IPHASW D HRMM SECON CODA AMPLIT PERI AZIMU VELO SNR AR TRES W  DIS CAZ7
 FIN  SZ Lg    A  1003 37.9        465.8 0.14 204.8      3.3 01 -0.4    323     
 HFS  SZ Pn    A  1003 24.8         31.8 0.08 100.9      2.8 00  0.3    579     
 NRS  SZ Lg    A  1005 30.9         68.1 0.28  92.4     10.0 09  2.5    708     

