 2014 0109 1617 11.0 L  59.570  17.240       GBF  3 3.8 1.5NGBF                1
                                                                               3
 STAT SP IPHASW D HRMM SECON CODA AMPLIT PERI AZIMU VELO SNR AR TRES W  DIS CAZ7
 HFS  SZ Pn    A  1617 42.4        533.7 0.20  86.0     20.2 20 -1.4    208     
 HFS  SZ  p    A  1617 46.2        177.8 0.15  93.5      5.2 12         208     
 HFS  SZ Lg    A  1618 10.0       1723.7 0.19  87.3     17.1 18 -0.4    208     
 NRS  SZ Sn    A  1618 44.5        114.6 0.27 100.9     12.5 08  7.8    342     
 NRS  SZ Lg    A  1618 52.9        158.4 0.38 101.4      9.8 08  4.3    342     
 NRS  SZ  s    A  1618 54.9        153.2 0.29  98.4      7.2 11         342     
 ARC  SZ Sn    A  1621 38.3         54.3 0.32 179.6      5.3 23  5.4   1178     

 2014 0109 1723 28.0 L  59.590  21.910       GBF  1 0.3 0.8NGBF                1
                                                                               3
 STAT SP IPHASW D HRMM SECON CODA AMPLIT PERI AZIMU VELO SNR AR TRES W  DIS CAZ7
 HFS  SZ Pn    A  1724 31.8        334.6 0.08 117.7      6.6 23 -0.8    464     
 HFS  SZ Sn    A  1725 19.8        240.6 0.10  70.4      2.9 23  0.0    464     

 2014 0109 2038 46.0 L  55.590  21.770       GBF  1 0.0 1.6NGBF                1
                                                                               3
 STAT SP IPHASW D HRMM SECON CODA AMPLIT PERI AZIMU VELO SNR AR TRES W  DIS CAZ7
 HFS  SZ Pn    A  2040 18.7        211.8 0.08 133.5      6.3 00 -0.1    696     
 HFS  SZ Sn    A  2041 26.8        625.9 0.95 148.5      3.8 15  0.0    696     

 2014 0109 2132 37.0 L  59.690  18.540       GBF  1 0.9 0.7NGBF                1
                                                                               3
 STAT SP IPHASW D HRMM SECON CODA AMPLIT PERI AZIMU VELO SNR AR TRES W  DIS CAZ7
 HFS  SZ Pn    A  2133 19.5         32.6 0.08  99.0      4.1 00  1.2    275     
 HFS  SZ Sn    A  2133 48.2        312.9 0.15  91.9      4.2 06 -0.4    275     
 HFS  SZ  s    A  2133 50.8        158.6 0.18  89.5      2.5 08         275     
 HFS  SZ Lg    A  2133 56.8         60.1 0.08 104.6      2.7 06  1.1    275     

 2014 0110 0038 30.0 L  50.240  15.880       GBF  6 2.0 2.5NGBF                1
                                                                               3
 STAT SP IPHASW D HRMM SECON CODA AMPLIT PERI AZIMU VELO SNR AR TRES W  DIS CAZ7
 HFS  SZ Pn    A  0040 52.9        271.5 0.25 168.4      8.7 03 -0.3   1111     
 NRS  SZ Pn    A  0041 04.0        128.4 0.21 143.9     30.0 21  0.0   1200     
 NRS  SZ  p    A  0041 14.5        123.6 0.23 141.1      5.3 23        1200     
 NRS  SZ Sn    A  0042 50.8         84.6 0.20 158.1      6.4 06 -5.9   1200     
 NOA  SZ Pn    A  0041 09.1         97.9 0.19 155.1      5.3 09  0.6   1237     
 FIN  SZ Pn    A  0041 27.7        146.1 0.25 196.0     14.7 15 -0.4   1398     
 FIN  SZ Sn    A  0043 33.3        246.7 0.34 203.2      4.9 08 -5.2   1398     
 APA  SZ Pn    A  0042 59.2       4706.3 1.05 233.5      5.5 18  2.0   2155     
 ARC  SZ Pn    A  0043 00.7         60.8 0.36 193.5     23.8 04 -2.0   2211     

 2014 0110 0052 53.0 L  58.850  32.750       GBF  3 3.8 3.1NGBF                1
                                                                               3
 STAT SP IPHASW D HRMM SECON CODA AMPLIT PERI AZIMU VELO SNR AR TRES W  DIS CAZ7
 APA  SZ  s    A  0056 23.2       3139.4 0.44 156.9      6.1 23         977     
 APA  SZ Sn    A  0056 25.6       4131.5 0.32 162.5      4.1 18 -7.1    977     
 HFS  SZ Sn    A  0056 55.4       1356.4 0.72 110.7      3.9 21 -0.1   1085     
 ARC  SZ Pn    A  0055 33.9         24.9 0.16 166.7      4.6 06  2.0   1241     
 ARC  SZ Sn    A  0057 34.3        802.9 0.60 137.8      5.7 22  6.0   1241     
 ARC  SZ  s    A  0057 38.9        255.4 0.41 138.5      5.0 21        1241     
 ARC  SZ  s    A  0057 43.2        276.4 0.45 136.7      3.8 23        1241     

 2014 0110 0229 08.0 L  58.390  18.800       GBF  2 0.0    NGBF                1
                                                                               3
 STAT SP IPHASW D HRMM SECON CODA AMPLIT PERI AZIMU VELO SNR AR TRES W  DIS CAZ7
 HFS  SZ Pn    A  0229 58.5        146.7 0.08 122.9      3.8 01  0.0    350     
 HFS  SZ  p    A  0229 59.8         69.4 0.10  99.0      3.7 22         350     
 SPI  SZ Pn    A  0233 40.5         41.1 0.20 175.6      4.9 00 -0.1   2211     

 2014 0110 0732 39.0 L  59.270  19.110       GBF  1 0.1 1.5NGBF                1
                                                                               3
 STAT SP IPHASW D HRMM SECON CODA AMPLIT PERI AZIMU VELO SNR AR TRES W  DIS CAZ7
 HFS  SZ Pn    A  0733 25.9        270.9 0.78  96.8      4.6 08  0.1    319     
 HFS  SZ Lg    A  0734 10.1       3609.2 0.08 114.1      4.2 08 -0.1    319     

 2014 0110 0740 44.0 L  55.700  30.910       GBF  2 0.0 2.7NGBF                1
                                                                               3
 STAT SP IPHASW D HRMM SECON CODA AMPLIT PERI AZIMU VELO SNR AR TRES W  DIS CAZ7
 HFS  SZ Pn    A  0743 09.3        159.6 0.08 130.3      3.1 21 -0.1   1129     
 HFS  SZ Sn    A  0744 55.8        791.9 0.10 106.1      3.3 02  0.0   1129     
 SPI  SZ  p    A  0746 07.8        145.9 0.08 149.0      8.3 09        2570     

 2014 0110 0745 38.0 L  58.430  15.230       GBF  2 3.8 1.4NGBF                1
                                                                               3
 STAT SP IPHASW D HRMM SECON CODA AMPLIT PERI AZIMU VELO SNR AR TRES W  DIS CAZ7
 HFS  SZ Pn    A  0746 11.3        182.3 0.08 154.6      2.9 00  0.3    209     
 HFS  SZ Lg    A  0746 40.0        196.2 0.18 176.9      4.7 22  2.3    209     
 HFS  SZ  s    A  0746 43.2       1115.5 0.18 178.5      7.3 23         209     
 ARC  SZ Lg    A  0751 49.7         17.1 0.23 208.2      3.9 01 -8.9   1333     

 2014 0110 0853 19.0 L  53.030  25.230       GBF  1 0.1 2.0NGBF                1
                                                                               3
 STAT SP IPHASW D HRMM SECON CODA AMPLIT PERI AZIMU VELO SNR AR TRES W  DIS CAZ7
 HFS  SZ Pn    A  0855 35.6       1034.0 1.15 117.3      3.8 15 -0.3   1060     
 HFS  SZ Sn    A  0857 16.3        193.1 0.15 155.6      2.8 22  0.1   1060     

 2014 0110 0905 58.0 L  55.830  16.340       GBF  1 0.1 1.5NGBF                1
                                                                               3
 STAT SP IPHASW D HRMM SECON CODA AMPLIT PERI AZIMU VELO SNR AR TRES W  DIS CAZ7
 HFS  SZ Pn    A  0907 07.8        166.0 0.08 158.0      2.8 02  0.3    504     
 HFS  SZ Sn    A  0907 58.3        612.5 0.18 179.7      3.7 18  0.0    504     

 2014 0110 0913 42.0 L  58.880  20.480       GBF  1 0.2 1.1NGBF                1
                                                                               3
 STAT SP IPHASW D HRMM SECON CODA AMPLIT PERI AZIMU VELO SNR AR TRES W  DIS CAZ7
 HFS  SZ Pn    A  0914 40.0        918.6 0.13 108.6      5.8 01  0.3    408     
 HFS  SZ Sn    A  0915 21.8        811.9 0.08 108.5      2.5 01 -0.2    408     

 2014 0110 1345 39.0 L  58.440  14.470       GBF  3 0.6 1.2NGBF                1
                                                                               3
 STAT SP IPHASW D HRMM SECON CODA AMPLIT PERI AZIMU VELO SNR AR TRES W  DIS CAZ7
 HFS  SZ Lg    A  1346 35.3        252.2 0.13 176.6      4.0 09  0.8    194     
 ARC  SZ Sn    A  1350 35.4         62.5 0.16 208.6      4.8 00 -0.9   1346     
 SPI  SZ Pn    A  1350 11.2         43.1 0.16 168.5      4.7 14  0.3   2205     

 2014 0110 1352 04.0 L  58.880  25.510       GBF  4 2.5 1.7NGBF                1
                                                                               3
 STAT SP IPHASW D HRMM SECON CODA AMPLIT PERI AZIMU VELO SNR AR TRES W  DIS CAZ7
 FIN  SZ Pn    A  1352 45.1       1942.6 0.10 161.9     34.1 24 -1.7    287     
 FIN  SZ Sn    A  1353 15.3       1701.9 0.22 169.4     12.3 17 -2.7    287     
 FIN  SZ Lg    A  1353 23.7        657.7 0.27 167.0      4.8 19 -2.3    287     
 HFS  SZ  p    A  1353 53.0        128.5 0.08 120.8      3.0 24         682     
 HFS  SZ Lg    A  1355 13.9        336.3 0.13  88.3      2.6 08 -5.1    682     
 NRS  SZ Lg    A  1355 53.5        115.3 0.45  80.1      9.9 18 -1.6    809     
 ARC  SZ Pn    A  1354 37.9         28.0 0.14 179.8      5.0 00  1.4   1188     
 ARC  SZ Sn    A  1356 25.0         30.3 0.23 171.4      4.3 08 -3.1   1188     

 2014 0110 1516 17.0 L  59.300  27.060       GBF  1 0.4 0.8NGBF                1
                                                                               3
 STAT SP IPHASW D HRMM SECON CODA AMPLIT PERI AZIMU VELO SNR AR TRES W  DIS CAZ7
 FIN  SZ Pn    A  1516 55.1        471.3 0.10 162.5     12.6 04  0.4    245     
 FIN  SZ Lg    A  1517 27.5        289.8 0.23 166.1      3.7 00  0.4    245     
 FIN  SZ  s    A  1517 32.2        209.1 0.29 169.6      4.5 02         245     

 2014 0111 2135 52.0 L  59.710  22.430       GBF  3 1.8 1.4NGBF                1
                                                                               3
 STAT SP IPHASW D HRMM SECON CODA AMPLIT PERI AZIMU VELO SNR AR TRES W  DIS CAZ7
 HFS  SZ Lg    A  2138 11.9        363.8 0.15  88.0     10.1 03 -0.2    490     
 HFS  SZ  s    A  2138 14.3        324.4 0.20  79.8      5.8 12         490     
 ARC  SZ Sn    A  2140 02.9         21.9 0.25 211.6      4.2 22  4.2   1105     
 SPI  SZ Pn    A  2140 09.8        237.1 0.21 172.4      9.0 02 -1.2   2074     

 2014 0112 0541 41.0 L  53.490  21.410       GBF  1 0.0 1.2NGBF                1
                                                                               3
 STAT SP IPHASW D HRMM SECON CODA AMPLIT PERI AZIMU VELO SNR AR TRES W  DIS CAZ7
 HFS  SZ Pn    A  0543 35.6        198.3 0.37 121.6      8.8 22  0.0    876     
 HFS  SZ Sn    A  0544 59.6         27.7 0.23 162.3      2.6 18  0.0    876     

 2014 0112 0922 19.0 L  59.030  15.830       GBF  1 0.2-0.0NGBF                1
                                                                               3
 STAT SP IPHASW D HRMM SECON CODA AMPLIT PERI AZIMU VELO SNR AR TRES W  DIS CAZ7
 HFS  SZ Pn    A  0922 47.1        155.3 0.08 120.5      4.1 14  0.3    172     
 HFS  SZ Lg    A  0923 08.5        292.4 0.07 152.5      2.6 17  0.1    172     

 2014 0112 1100 54.0 L  54.520  27.780       GBF  2 7.6 2.4NGBF                1
                                                                               3
 STAT SP IPHASW D HRMM SECON CODA AMPLIT PERI AZIMU VELO SNR AR TRES W  DIS CAZ7
 HFS  SZ Pn    A  1103 08.2         15.1 0.08 106.8      2.6 13 -1.6   1050     
 HFS  SZ  s    A  1106 01.3        255.2 0.08 110.4      3.1 09        1050     
 HFS  SZ Lg    A  1106 04.3        718.3 0.09 114.7      3.6 05 10.2   1050     
 ARC  SZ Lg    A  1109 04.4         53.9 0.30 155.0      5.4 19 11.2   1678     

 2014 0112 1243 26.0 L  59.600  16.480       GBF  1 0.9 0.0NGBF                1
                                                                               3
 STAT SP IPHASW D HRMM SECON CODA AMPLIT PERI AZIMU VELO SNR AR TRES W  DIS CAZ7
 HFS  SZ Pn    A  1243 53.8         61.7 0.09  86.9      3.7 23  1.0    166     
 HFS  SZ  s    A  1244 03.3         63.4 0.08 113.2      3.6 03         166     
 HFS  SZ Lg    A  1244 12.8        271.0 0.09 115.4      4.2 05 -0.9    166     

 2014 0112 1527 46.0 L  59.980  14.530       GBF  2 1.5 0.6NGBF                1
                                                                               3
 STAT SP IPHASW D HRMM SECON CODA AMPLIT PERI AZIMU VELO SNR AR TRES W  DIS CAZ7
 HFS  SZ Pg    A  1527 51.8        577.1 0.10 105.9      6.6 04 -2.2     49     
 HFS  SZ  s    A  1527 56.9        367.1 0.08 114.1      4.7 04          49     
 HFS  SZ Lg    A  1528 01.4        300.4 0.08 118.1      3.5 08  1.3     49     
 ARC  SZ Lg    A  1533 24.8         44.6 0.22 197.6      3.7 13  1.0   1183     

 2014 0112 1540 35.0 L  59.030  15.820       GBF  2 1.9 0.9NGBF                1
                                                                               3
 STAT SP IPHASW D HRMM SECON CODA AMPLIT PERI AZIMU VELO SNR AR TRES W  DIS CAZ7
 HFS  SZ Pn    A  1541 00.8       1503.1 0.13 152.9     22.1 17 -1.8    172     
 HFS  SZ  p    A  1541 07.5        547.4 0.10 154.0      8.1 19         172     
 HFS  SZ  p    A  1541 17.8        339.8 0.13 136.0      2.6 01         172     
 HFS  SZ Lg    A  1541 22.7       2141.8 0.12 153.3     10.6 18 -1.5    172     
 HFS  SZ  s    A  1541 29.8        424.8 0.25 159.4      4.4 24         172     
 NRS  SZ Pn    A  1541 21.5        206.7 0.11 126.1     22.9 00  1.4    306     
 NRS  SZ Sn    A  1541 55.7        282.9 0.21 121.3      8.4 05  2.7    306     
 NRS  SZ Lg    A  1542 04.8        412.0 0.12 131.9      5.1 05  2.4    306     

 2014 0112 1540 50.0 L  59.040  14.280       GBF  1 0.4 0.6NGBF                1
                                                                               3
 STAT SP IPHASW D HRMM SECON CODA AMPLIT PERI AZIMU VELO SNR AR TRES W  DIS CAZ7
 HFS  SZ Pg    A  1541 10.0        416.0 0.13 163.4      4.8 01 -0.5    127     
 HFS  SZ  s    A  1541 12.2        341.9 0.13 174.4      4.6 09         127     
 HFS  SZ Lg    A  1541 26.0       1274.1 0.14 161.0      6.4 03 -0.4    127     
 HFS  SZ  s    A  1541 27.8        783.7 0.15 172.5      4.1 07         127     

 2014 0112 1620 27.0 L  59.090  19.130       GBF  2 0.7 0.3NGBF                1
                                                                               3
 STAT SP IPHASW D HRMM SECON CODA AMPLIT PERI AZIMU VELO SNR AR TRES W  DIS CAZ7
 HFS  SZ Pn    A  1621 14.5        797.4 1.18 130.1      3.0 21 -0.3    328     
 HFS  SZ Sn    A  1621 51.3        106.3 0.07 107.4      3.6 01  1.6    328     
 NRS  SZ Lg    A  1622 39.3         51.9 0.24  95.8      5.0 14  0.2    462     

 2014 0112 1637 18.0 L  50.330  26.920       GBF  1 0.1 2.4NGBF                1
                                                                               3
 STAT SP IPHASW D HRMM SECON CODA AMPLIT PERI AZIMU VELO SNR AR TRES W  DIS CAZ7
 HFS  SZ Pn    A  1640 12.8         27.1 0.08 147.1      4.2 10 -0.2   1373     
 HFS  SZ Lg    A  1643 50.2        112.4 0.27 123.4      2.6 13 -0.1   1373     

 2014 0112 1730 00.0 L  54.970  17.590       GBF  1 0.0 1.0NGBF                1
                                                                               3
 STAT SP IPHASW D HRMM SECON CODA AMPLIT PERI AZIMU VELO SNR AR TRES W  DIS CAZ7
 HFS  SZ Pn    A  1731 23.6        749.1 1.10 145.8      3.9 10  0.0    621     
 HFS  SZ Sn    A  1732 24.7        232.4 0.10 180.3      4.0 24 -0.1    621     

 2014 0112 1801 56.0 L  59.620  15.660       GBF  1 0.4 0.1NGBF                1
                                                                               3
 STAT SP IPHASW D HRMM SECON CODA AMPLIT PERI AZIMU VELO SNR AR TRES W  DIS CAZ7
 HFS  SZ Pg    A  1802 15.8        360.2 0.10 110.4      6.5 06 -0.2    124     
 HFS  SZ Lg    A  1802 30.7        414.9 0.10 138.2      4.2 21 -0.7    124     
 HFS  SZ  s    A  1802 32.8        506.1 0.10 139.6      5.0 22         124     

 2014 0112 1830 15.0 L  54.710  26.510       GBF  3 2.9 2.6NGBF                1
                                                                               3
 STAT SP IPHASW D HRMM SECON CODA AMPLIT PERI AZIMU VELO SNR AR TRES W  DIS CAZ7
 HFS  SZ  s    A  1833 52.7        251.0 1.43 121.6      5.0 01         976     
 HFS  SZ Lg    A  1834 53.7        164.8 0.22 123.9      2.9 01 -0.1    976     
 APA  SZ Sn    A  1835 47.8       3042.7 0.20 175.5      7.9 21  7.9   1477     
 SPI  SZ Pn    A  1835 28.6         64.5 0.37 170.3      4.1 04 -0.7   2649     

 2014 0112 1855 49.0 L  54.570  22.060       GBF  1 0.1 1.7NGBF                1
                                                                               3
 STAT SP IPHASW D HRMM SECON CODA AMPLIT PERI AZIMU VELO SNR AR TRES W  DIS CAZ7
 HFS  SZ Pn    A  1857 34.3        845.3 1.02 135.5      4.2 01  0.2    798     
 HFS  SZ Lg    A  1859 37.1        145.9 0.23 147.1      3.4 09  0.2    798     

 2014 0112 2238 34.0 L  57.050  32.940       GBF  3 0.8 2.2NGBF                1
                                                                               3
 STAT SP IPHASW D HRMM SECON CODA AMPLIT PERI AZIMU VELO SNR AR TRES W  DIS CAZ7
 NRS  SZ Lg    A  2244 43.5         62.3 0.24 103.6      4.3 04 -0.2   1294     
 ARC  SZ Sn    A  2243 51.3        149.2 0.12 163.5     10.0 01  0.3   1440     
 SPI  SZ Pn    A  2243 30.8         49.6 0.12 142.5      4.1 12  2.0   2440     
 SPI  SZ  p    A  2243 31.9         25.9 0.18 155.1      5.3 00        2440     

 2014 0113 0034 35.0 L  57.370  22.420       GBF  1 0.1 1.4NGBF                1
                                                                               3
 STAT SP IPHASW D HRMM SECON CODA AMPLIT PERI AZIMU VELO SNR AR TRES W  DIS CAZ7
 NRS  SZ Pn    A  0036 11.4        241.3 0.68 126.1      6.8 09 -0.1    727     
 NRS  SZ Sn    A  0037 22.3         60.5 0.31  97.4      4.2 18  0.1    727     

 2014 0113 0059 40.0 L  59.990  17.310       GBF  2 0.5 0.9NGBF                1
                                                                               3
 STAT SP IPHASW D HRMM SECON CODA AMPLIT PERI AZIMU VELO SNR AR TRES W  DIS CAZ7
 HFS  SZ Pn    A  0100 11.1        638.6 0.18  91.7     21.1 01 -0.9    202     
 HFS  SZ  p    A  0100 13.3        267.4 0.20  81.9      4.3 11         202     
 HFS  SZ Lg    A  0100 37.8       1217.5 0.18  91.9     18.5 01  0.1    202     
 HFS  SZ  s    A  0100 40.7       1233.1 0.16  83.5      8.4 09         202     
 HFS  SZ  s    A  0100 43.0        824.5 0.18 117.4      6.4 24         202     
 NRS  SZ Lg    A  0101 13.5        156.0 0.16 109.5     10.4 07 -0.6    329     

 2014 0113 0136 05.0 L  53.750  30.370       GBF  1 0.1 2.8NGBF                1
                                                                               3
 STAT SP IPHASW D HRMM SECON CODA AMPLIT PERI AZIMU VELO SNR AR TRES W  DIS CAZ7
 HFS  SZ Pn    A  0138 43.0        537.6 0.97 136.4      2.7 18 -0.1   1234     
 HFS  SZ Lg    A  0141 57.8        375.7 0.27 116.1      8.8 01  0.2   1234     

 2014 0113 0244 54.0 L  58.590  15.050       GBF  2 0.1 1.7NGBF                1
                                                                               3
 STAT SP IPHASW D HRMM SECON CODA AMPLIT PERI AZIMU VELO SNR AR TRES W  DIS CAZ7
 HFS  SZ Pn    A  0245 24.1         97.7 0.08 132.2      5.3 23 -0.1    189     
 HFS  SZ  p    A  0245 36.9        369.5 0.93 155.3      4.4 00         189     
 HFS  SZ Lg    A  0245 48.2        378.9 0.26 168.8      5.5 13  0.2    189     
 ARC  SZ Lg    A  0251 10.7        135.4 0.40 198.5      7.9 09 -0.2   1319     

 2014 0113 0435 21.0 L  56.260  25.770       GBF  2 2.9 2.0NGBF                1
                                                                               3
 STAT SP IPHASW D HRMM SECON CODA AMPLIT PERI AZIMU VELO SNR AR TRES W  DIS CAZ7
 HFS  SZ Pn    A  0437 08.5        334.2 1.28  93.5      2.6 22 -1.4    829     
 HFS  SZ Lg    A  0439 19.2         75.2 0.27 120.5      8.8 04  1.3    829     
 ARC  SZ Sn    A  0440 52.6        177.4 0.10 178.3     13.0 01  5.9   1481     

