 2014 0106 0627 45.0 L  57.840  15.560       GBF  1 0.6 0.5NGBF                1
                                                                               3
 STAT SP IPHASW D HRMM SECON CODA AMPLIT PERI AZIMU VELO SNR AR TRES W  DIS CAZ7
 HFS  SZ Pn    A  0628 25.8         83.5 0.11 134.6      3.3 21 -0.8    277     
 HFS  SZ Sn    A  0628 57.4        284.3 0.10 179.4      8.6 22  0.4    277     

 2014 0106 0739 36.0 L  51.630  16.810       GBF  1 0.0 0.8NGBF                1
                                                                               3
 STAT SP IPHASW D HRMM SECON CODA AMPLIT PERI AZIMU VELO SNR AR TRES W  DIS CAZ7
 HFS  SZ Pn    A  0741 41.7        122.8 0.08 150.2      4.1 16  0.0    967     
 HFS  SZ  p    A  0741 56.5        102.5 0.08 191.9      2.6 24         967     
 HFS  SZ Sn    A  0743 13.8         26.5 0.08 186.0      3.3 18  0.1    967     

 2014 0106 0758 29.0 L  55.280  25.330       GBF  2 0.4 2.0NGBF                1
                                                                               3
 STAT SP IPHASW D HRMM SECON CODA AMPLIT PERI AZIMU VELO SNR AR TRES W  DIS CAZ7
 FIN  SZ Sn    A  0801 08.0        262.3 0.32 180.7      2.9 03  0.1    688     
 HFS  SZ Pn    A  0800 24.8        113.6 0.08 110.9      5.0 12  1.0    877     
 HFS  SZ  p    A  0800 45.8        569.1 1.10  99.5      2.5 23         877     
 HFS  SZ Sn    A  0801 47.6        414.6 0.10 135.8      4.3 12 -0.2    877     

 2014 0106 0818 03.0 L  53.080  32.260       GBF  2 0.8 2.3NGBF                1
                                                                               3
 STAT SP IPHASW D HRMM SECON CODA AMPLIT PERI AZIMU VELO SNR AR TRES W  DIS CAZ7
 HFS  SZ Sn    A  0823 04.7        205.0 0.13 116.8      4.0 00 -2.3   1377     
 HFS  SZ Lg    A  0824 36.5        194.8 0.08 113.8      8.8 02  0.0   1377     
 SPI  SZ Pn    A  0823 35.8         67.0 0.15 167.2      4.3 09  0.3   2871     

 2014 0106 0834 07.0 L  54.320  28.790       GBF  1 0.1 1.8NGBF                1
                                                                               3
 STAT SP IPHASW D HRMM SECON CODA AMPLIT PERI AZIMU VELO SNR AR TRES W  DIS CAZ7
 HFS  SZ Pn    A  0836 30.6        192.8 0.08 124.0      4.8 05  0.0   1114     
 HFS  SZ Lg    A  0839 25.0        218.3 0.08 105.3      4.8 13 -0.3   1114     

 2014 0106 0909 41.0 L  59.480  27.950       GBF  5 0.6 1.8NGBF                1
                                                                               3
 STAT SP IPHASW D HRMM SECON CODA AMPLIT PERI AZIMU VELO SNR AR TRES W  DIS CAZ7
 FIN  SZ Pn    A  0910 18.5       1489.3 0.10 159.2     48.0 05  0.3    241     
 FIN  SZ  p    A  0910 26.4        346.9 0.15 158.2      4.4 04         241     
 FIN  SZ Lg    A  0910 50.3       1102.9 0.26 165.9     12.8 11  0.4    241     
 HFS  SZ Pn    A  0911 26.9        208.1 0.13  94.5      6.6 05  0.4    801     
 HFS  SZ  s    A  0913 19.7        341.5 0.33  98.0      3.0 09         801     
 HFS  SZ  s    A  0913 22.7        295.9 0.29  98.8      4.5 09         801     
 HFS  SZ Lg    A  0913 29.7        239.4 0.30  89.7      2.8 00 -0.3    801     
 NRS  SZ Pn    A  0911 40.4        236.6 0.10  72.8      9.8 18 -0.7    921     
 NRS  SZ  p    A  0911 43.7        182.1 0.10  75.9     19.2 15         921     
 NOA  SZ Pn    A  0911 42.1        112.2 0.12  87.9      3.7 05 -1.3    940     
 ARC  SZ Pn    A  0912 07.0         45.4 0.15 173.7     13.5 00  1.0   1127     
 ARC  SZ  p    A  0912 09.8         70.7 0.16 177.4      4.8 04        1127     

 2014 0106 1059 26.0 L  56.430  23.480       GBF  1 0.8 1.6NGBF                1
                                                                               3
 STAT SP IPHASW D HRMM SECON CODA AMPLIT PERI AZIMU VELO SNR AR TRES W  DIS CAZ7
 FIN  SZ Pn    A  1100 44.5        137.1 0.15 211.4      6.7 15  0.0    578     
 FIN  SZ Sn    A  1101 43.5        195.2 0.35 191.6      5.7 04  1.6    578     
 FIN  SZ Lg    A  1102 10.3        244.5 0.37 198.0      4.8 01 -0.9    578     

 2014 0106 1115 19.0 L  57.760  16.080       GBF  3 0.6 0.4NGBF                1
                                                                               3
 STAT SP IPHASW D HRMM SECON CODA AMPLIT PERI AZIMU VELO SNR AR TRES W  DIS CAZ7
 HFS  SZ Sn    A  1116 35.8        304.0 0.08 134.8      5.0 16  0.4    298     
 NRS  SZ Pn    A  1116 17.6        313.5 0.07 131.5     10.9 08 -0.6    420     
 SPI  SZ Pn    A  1119 59.2         58.5 0.18 174.7      7.3 05  1.0   2279     

 2014 0106 1113 47.0 L  54.280  24.470       GBF  1 0.1 1.7NGBF                1
                                                                               3
 STAT SP IPHASW D HRMM SECON CODA AMPLIT PERI AZIMU VELO SNR AR TRES W  DIS CAZ7
 HFS  SZ Pn    A  1115 46.8        311.1 0.08 133.3      3.9 02 -0.1    919     
 HFS  SZ Lg    A  1118 09.4        273.2 0.08 130.5      4.4 00 -0.3    919     

 2014 0106 1238 19.0 L  59.540  27.470       GBF  3 2.6 1.6NGBF                1
                                                                               3
 STAT SP IPHASW D HRMM SECON CODA AMPLIT PERI AZIMU VELO SNR AR TRES W  DIS CAZ7
 FIN  SZ Pn    A  1238 53.6       2870.5 0.10 159.5     00.8 00 -0.7    225     
 FIN  SZ Lg    A  1239 27.5        925.9 0.28 154.1     17.7 05  4.0    225     
 FIN  SZ  s    A  1239 32.2        613.6 0.25 145.3      4.0 14         225     
 HFS  SZ Lg    A  1241 55.2        236.9 0.26  94.3      4.1 05 -4.9    774     
 NRS  SZ Pn    A  1240 16.8        104.1 0.14  81.5     11.2 10  1.1    893     

 2014 0106 1302 51.0 L  59.610  16.440       GBF  1 0.2 0.5NGBF                1
                                                                               3
 STAT SP IPHASW D HRMM SECON CODA AMPLIT PERI AZIMU VELO SNR AR TRES W  DIS CAZ7
 HFS  SZ Pn    A  1303 17.8        810.1 0.10  99.7      4.1 10  0.3    164     
 HFS  SZ Lg    A  1303 38.3       1034.8 0.08 121.2      3.3 11  0.3    164     

 2014 0106 1325 27.0 L  51.030  22.650       GBF  1 0.0 2.5NGBF                1
                                                                               3
 STAT SP IPHASW D HRMM SECON CODA AMPLIT PERI AZIMU VELO SNR AR TRES W  DIS CAZ7
 HFS  SZ Pn    A  1327 55.8        116.9 0.08 147.1      3.1 00 -0.1   1158     
 HFS  SZ Lg    A  1330 58.0        726.1 0.07 157.2      5.1 10  0.1   1158     

 2014 0106 1413 51.0 L  59.910  23.030       GBF  1 1.7 2.0NGBF                1
                                                                               3
 STAT SP IPHASW D HRMM SECON CODA AMPLIT PERI AZIMU VELO SNR AR TRES W  DIS CAZ7
 HFS  SZ Pn    A  1415 02.0        291.1 0.10  88.6     11.2 00 -0.4    520     
 HFS  SZ Sn    A  1415 59.3       3177.6 0.10 104.4     14.0 15  4.7    520     
 HFS  SZ Lg    A  1416 19.8        457.0 0.10  64.5      3.3 24  0.2    520     

 2014 0106 1844 03.0 L  55.080  26.200       GBF  1 0.1 2.1NGBF                1
                                                                               3
 STAT SP IPHASW D HRMM SECON CODA AMPLIT PERI AZIMU VELO SNR AR TRES W  DIS CAZ7
 HFS  SZ Pn    A  1846 04.3        853.6 0.08 108.9      2.8 12 -0.3    934     
 HFS  SZ Lg    A  1848 29.7        212.4 0.53 143.0      3.2 21  0.0    934     

 2014 0106 1920 16.0 L  54.410  23.380       GBF  1 0.1 1.8NGBF                1
                                                                               3
 STAT SP IPHASW D HRMM SECON CODA AMPLIT PERI AZIMU VELO SNR AR TRES W  DIS CAZ7
 HFS  SZ Pn    A  1922 08.8        128.8 0.08 148.9      3.2 15 -0.2    863     
 HFS  SZ Lg    A  1924 22.5        269.0 0.08 118.2      6.0 15  0.0    863     
 HFS  SZ  s    A  1924 34.2        396.9 0.08 110.4      4.8 23         863     

 2014 0106 1941 59.0 L  59.090  17.960       GBF  1 0.4 0.1NGBF                1
                                                                               3
 STAT SP IPHASW D HRMM SECON CODA AMPLIT PERI AZIMU VELO SNR AR TRES W  DIS CAZ7
 HFS  SZ Pn    A  1942 39.7        209.3 0.08  96.5      4.8 17  0.4    267     
 HFS  SZ Sn    A  1943 08.3        134.2 0.13 115.5      2.9 01 -0.5    267     

 2014 0106 2357 46.0 L  57.910  15.300       GBF  1 0.2 0.2NGBF                1
                                                                               3
 STAT SP IPHASW D HRMM SECON CODA AMPLIT PERI AZIMU VELO SNR AR TRES W  DIS CAZ7
 HFS  SZ Pn    A  2358 26.2        143.7 0.08 174.9      6.7 15  0.2    265     
 HFS  SZ Sn    A  2358 55.6        195.2 0.10 135.5      2.9 23  0.3    265     

 2014 0107 0025 56.0 L  53.990  32.990       GBF  1 1.3 2.4NGBF                1
                                                                               3
 STAT SP IPHASW D HRMM SECON CODA AMPLIT PERI AZIMU VELO SNR AR TRES W  DIS CAZ7
 HFS  SZ Pn    A  0028 47.7        200.6 0.08  87.0      7.8 25 -0.4   1349     
 HFS  SZ Sn    A  0030 57.6        488.4 0.08 113.3      5.3 01  3.6   1349     
 HFS  SZ  s    A  0031 25.7        316.7 0.09 108.2      3.1 03        1349     
 HFS  SZ Lg    A  0032 21.3        447.0 0.08 112.0      3.1 00 -0.1   1349     

 2014 0107 0027 38.0 L  55.820  17.410       GBF  1 0.0 1.3NGBF                1
                                                                               3
 STAT SP IPHASW D HRMM SECON CODA AMPLIT PERI AZIMU VELO SNR AR TRES W  DIS CAZ7
 HFS  SZ Pn    A  0028 50.2        163.1 0.08 170.9      5.6 17 -0.1    528     
 HFS  SZ Sn    A  0029 43.3        416.4 0.14 140.8      5.6 13  0.0    528     

 2014 0107 0030 29.0 L  53.700  28.750       GBF  1 2.1 2.3NGBF                1
                                                                               3
 STAT SP IPHASW D HRMM SECON CODA AMPLIT PERI AZIMU VELO SNR AR TRES W  DIS CAZ7
 HFS  SZ Pn    A  0032 57.8        177.4 0.08 120.1      6.2 01 -0.3   1159     
 HFS  SZ  p    A  0033 01.3        104.2 0.10 114.7      4.0 06        1159     
 HFS  SZ Sn    A  0034 53.3        420.1 0.08 137.4      3.5 15  6.1   1159     
 HFS  SZ  s    A  0035 58.0        173.0 0.08 117.6      5.6 04        1159     
 HFS  SZ Lg    A  0036 00.3        392.7 0.09 121.1      3.9 00  0.0   1159     

 2014 0107 0042 46.0 L  57.950  20.720       GBF  1 0.5 1.0NGBF                1
                                                                               3
 STAT SP IPHASW D HRMM SECON CODA AMPLIT PERI AZIMU VELO SNR AR TRES W  DIS CAZ7
 HFS  SZ Pn    A  0043 51.7        186.0 0.10 117.1      3.0 01  0.3    470     
 HFS  SZ  p    A  0044 00.0        181.4 0.08 142.5      4.5 24         470     
 HFS  SZ Lg    A  0044 59.7        351.5 0.09 117.4      4.9 00 -0.7    470     
 HFS  SZ  s    A  0045 15.6        497.2 0.08 110.9      3.2 07         470     

 2014 0107 0058 58.0 L  59.830  22.720       GBF  1 0.2 0.5NGBF                1
                                                                               3
 STAT SP IPHASW D HRMM SECON CODA AMPLIT PERI AZIMU VELO SNR AR TRES W  DIS CAZ7
 HFS  SZ Pn    A  0100 08.0        112.5 0.08  65.1      5.0 24  0.5    505     
 HFS  SZ  p    A  0100 18.9        153.1 0.10 111.3      4.4 21         505     
 HFS  SZ Sn    A  0100 58.3        157.1 0.08 112.8      6.6 22 -0.1    505     

 2014 0107 0124 41.0 L  59.030  22.630       GBF  1 4.6 1.5NGBF                1
                                                                               3
 STAT SP IPHASW D HRMM SECON CODA AMPLIT PERI AZIMU VELO SNR AR TRES W  DIS CAZ7
 HFS  SZ Pn    A  0125 50.7        168.4 0.08 118.0      4.1 18 -1.5    519     
 HFS  SZ Sn    A  0126 52.8       1178.3 0.10  99.3      4.9 00  8.4    519     
 HFS  SZ Lg    A  0127 05.3        254.2 0.08 100.9      3.7 01 -4.0    519     

 2014 0107 0127 58.0 L  59.800  17.070       GBF  1 0.6-0.4NGBF                1
                                                                               3
 STAT SP IPHASW D HRMM SECON CODA AMPLIT PERI AZIMU VELO SNR AR TRES W  DIS CAZ7
 HFS  SZ Pn    A  0128 29.8         66.1 0.08 106.2      2.7 06  1.2    192     
 HFS  SZ Lg    A  0128 52.8         77.7 0.08  98.7      5.6 01 -0.1    192     

 2014 0107 0315 17.0 L  59.940  25.480       GBF  1 0.4 0.6NGBF                1
                                                                               3
 STAT SP IPHASW D HRMM SECON CODA AMPLIT PERI AZIMU VELO SNR AR TRES W  DIS CAZ7
 FIN  SZ Pn    A  0315 44.4        111.4 0.20 193.3      8.4 02  0.0    170     
 FIN  SZ Lg    A  0316 04.9        275.8 0.32 186.1      6.6 05 -0.8    170     

 2014 0107 0448 23.0 L  57.150  20.370       GBF  1 0.0 0.5NGBF                1
                                                                               3
 STAT SP IPHASW D HRMM SECON CODA AMPLIT PERI AZIMU VELO SNR AR TRES W  DIS CAZ7
 HFS  SZ Pn    A  0449 33.2        162.7 0.08 148.9      6.2 21  0.0    510     
 HFS  SZ Lg    A  0450 48.7        135.6 0.08 112.4      4.7 15 -0.1    510     

 2014 0107 0508 24.0 L  56.490  21.160       GBF  1 0.3 1.1NGBF                1
                                                                               3
 STAT SP IPHASW D HRMM SECON CODA AMPLIT PERI AZIMU VELO SNR AR TRES W  DIS CAZ7
 HFS  SZ Pn    A  0509 45.3        314.7 0.10 129.3      3.0 00  0.7    596     
 HFS  SZ Lg    A  0511 14.3        319.0 0.08 141.7      3.6 12  0.0    596     

 2014 0107 0629 58.0 L  56.840  22.200       GBF  1 0.0 1.6NGBF                1
                                                                               3
 STAT SP IPHASW D HRMM SECON CODA AMPLIT PERI AZIMU VELO SNR AR TRES W  DIS CAZ7
 HFS  SZ Pn    A  0631 21.0        607.5 0.10 107.9      6.1 15 -0.1    617     
 HFS  SZ Sn    A  0632 21.9        839.4 0.10 124.2      9.8 01  0.0    617     

 2014 0107 0643 59.0 L  55.200  22.360       GBF  1 0.0 1.2NGBF                1
                                                                               3
 STAT SP IPHASW D HRMM SECON CODA AMPLIT PERI AZIMU VELO SNR AR TRES W  DIS CAZ7
 HFS  SZ Pn    A  0645 38.8         54.4 0.08 127.2      2.8 05  0.0    754     
 HFS  SZ Lg    A  0647 34.3        192.7 0.07 132.6      9.5 00  0.0    754     

 2014 0107 0729 31.0 L  55.390  21.410       GBF  1 0.3 1.5NGBF                1
                                                                               3
 STAT SP IPHASW D HRMM SECON CODA AMPLIT PERI AZIMU VELO SNR AR TRES W  DIS CAZ7
 HFS  SZ Pn    A  0731 04.1        304.8 0.07 150.7      3.2 15  0.0    699     
 HFS  SZ Sn    A  0732 11.7        409.4 0.08 114.0      6.0 21 -0.6    699     

 2014 0107 0801 49.0 L  56.470  14.070       GBF  1 0.1 0.8NGBF                1
                                                                               3
 STAT SP IPHASW D HRMM SECON CODA AMPLIT PERI AZIMU VELO SNR AR TRES W  DIS CAZ7
 HFS  SZ Pn    A  0802 46.8        623.5 0.13 178.5      3.7 01  0.0    408     
 HFS  SZ Sn    A  0803 28.8        472.1 0.08 162.4      3.8 14 -0.2    408     

 2014 0107 0802 02.0 L  59.610  16.440       GBF  1 0.1 0.8NGBF                1
                                                                               3
 STAT SP IPHASW D HRMM SECON CODA AMPLIT PERI AZIMU VELO SNR AR TRES W  DIS CAZ7
 HFS  SZ Pn    A  0802 28.7       1228.1 0.08 125.9      4.1 16  0.2    164     
 HFS  SZ Lg    A  0802 49.2       1880.9 0.09 103.1      6.0 06  0.1    164     

 2014 0107 0921 19.0 L  59.740  24.880       GBF  3 1.0 1.6NGBF                1
                                                                               3
 STAT SP IPHASW D HRMM SECON CODA AMPLIT PERI AZIMU VELO SNR AR TRES W  DIS CAZ7
 HFS  SZ Sn    A  0923 44.8        132.6 0.08  95.0      2.9 05 -0.1    626     
 ARC  SZ Lg    A  0926 32.5        123.8 0.44 179.0      5.1 02  1.3   1093     
 ARC  SZ  s    A  0926 33.7         61.3 0.40 178.5      4.2 03        1093     
 SPI  SZ Pn    A  0925 40.5         22.3 0.21 166.9      4.2 00  1.7   2082     

 2014 0107 0923 12.0 L  56.110  25.610       GBF  2 0.9 2.5NGBF                1
                                                                               3
 STAT SP IPHASW D HRMM SECON CODA AMPLIT PERI AZIMU VELO SNR AR TRES W  DIS CAZ7
 HFS  SZ Pn    A  0925 02.3        279.9 0.08 138.6      2.5 21  1.1    831     
 HFS  SZ Lg    A  0927 10.0       1127.6 0.08 111.1      4.5 06  0.5    831     
 ARC  SZ Lg    A  0930 18.5        143.3 0.44 178.8      4.8 01 -1.2   1498     

 2014 0107 0922 13.0 L  58.640  14.890       GBF  1 3.6-0.2NGBF                1
                                                                               3
 STAT SP IPHASW D HRMM SECON CODA AMPLIT PERI AZIMU VELO SNR AR TRES W  DIS CAZ7
 HFS  SZ Pn    A  0922 40.8         33.3 0.08 172.4      2.6 15 -1.0    180     
 HFS  SZ Lg    A  0923 10.6        119.4 0.08 139.0      5.6 18  6.2    180     

 2014 0107 0923 08.0 L  59.840  22.330       GBF  1 0.3 1.3NGBF                1
                                                                               3
 STAT SP IPHASW D HRMM SECON CODA AMPLIT PERI AZIMU VELO SNR AR TRES W  DIS CAZ7
 HFS  SZ Pn    A  0924 14.3         43.2 0.08  88.8      3.0 01 -0.5    482     
 HFS  SZ  p    A  0924 22.8        146.3 0.13  66.5      4.9 23         482     
 HFS  SZ  p    A  0924 26.8        154.0 0.10  69.7      4.5 20         482     
 HFS  SZ Lg    A  0925 25.6        550.8 0.13  92.6      4.4 02 -0.2    482     

 2014 0107 0926 58.0 L  51.660  18.090       GBF  1 0.1 2.1NGBF                1
                                                                               3
 STAT SP IPHASW D HRMM SECON CODA AMPLIT PERI AZIMU VELO SNR AR TRES W  DIS CAZ7
 HFS  SZ Pn    A  0929 05.4        352.9 0.08 182.9      7.2 21 -0.2    983     
 HFS  SZ Lg    A  0931 38.8        625.0 1.10 153.6      3.8 08 -0.1    983     

 2014 0107 0949 00.0 L  51.170  29.730       GBF  1 0.2 2.7NGBF                1
                                                                               3
 STAT SP IPHASW D HRMM SECON CODA AMPLIT PERI AZIMU VELO SNR AR TRES W  DIS CAZ7
 HFS  SZ Pn    A  0951 59.5        338.3 1.05 138.6      2.7 10 -0.3   1413     
 HFS  SZ  s    A  0955 39.7        667.1 0.10 135.0      8.4 07        1413     
 HFS  SZ Lg    A  0955 43.7        550.0 0.10 117.4     11.4 10 -0.1   1413     
 HFS  SZ  s    A  0955 45.9        261.7 0.10 115.9      4.2 11        1413     

 2014 0107 1048 26.0 L  57.470  14.240       GBF  2 0.7 1.4NGBF                1
                                                                               3
 STAT SP IPHASW D HRMM SECON CODA AMPLIT PERI AZIMU VELO SNR AR TRES W  DIS CAZ7
 HFS  SZ Pn    A  1049 09.6        495.2 0.20 178.9     13.6 05 -0.5    298     
 HFS  SZ  p    A  1049 13.9        203.4 0.18 172.9      5.8 00         298     
 HFS  SZ  s    A  1049 42.3        875.3 0.30 182.1     11.8 08         298     
 HFS  SZ  s    A  1049 42.4        875.3 0.31 177.1      9.2 03         298     
 HFS  SZ  s    A  1049 46.5        934.8 0.26 171.3     10.7 02         298     
 HFS  SZ Lg    A  1049 49.8        528.5 0.32 175.4      4.5 01 -1.4    298     
 NRS  SZ Sn    A  1050 03.5        227.7 0.25 147.7      8.0 08  0.4    395     
 NRS  SZ Lg    A  1050 19.5        436.2 0.26 154.3      8.9 01  0.7    395     
 NRS  SZ  s    A  1050 21.8        290.5 0.24 169.7     13.5 14         395     

